<?xml version="1.0" encoding="UTF-8"?><q:quakeml xmlns="http://quakeml.org/xmlns/bed/1.2" xmlns:q="http://quakeml.org/xmlns/quakeml/1.2"><eventParameters publicID="smi:org.gfz-potsdam.de/geofon/EventParameters"><event publicID="smi:org.gfz-potsdam.de/geofon/gfz2023injc"><description><text>Kuril Islands</text><type>region name</type></description><creationInfo><agencyID>GFZ</agencyID><creationTime>2023-05-02T03:55:38.246569Z</creationTime></creationInfo><magnitude publicID="smi:org.gfz-potsdam.de/geofon/Origin/20230502035718.298845.220301/netMag/mb"><stationCount>18</stationCount><creationInfo><agencyID>GFZ</agencyID><creationTime>2023-05-02T03:57:18.517241Z</creationTime></creationInfo><mag><value>4.33</value><uncertainty>0.3</uncertainty></mag><type>mb</type><originID>smi:org.gfz-potsdam.de/geofon/Origin/20230502035718.298845.220301</originID><methodID>smi:org.gfz-potsdam.de/geofon/trimmed_mean(25)</methodID></magnitude><magnitude publicID="smi:org.gfz-potsdam.de/geofon/Origin/20230502035718.298845.220301/netMag/M"><stationCount>18</stationCount><creationInfo><agencyID>GFZ</agencyID><creationTime>2023-05-02T03:57:18.555593Z</creationTime></creationInfo><mag><value>4.33</value></mag><type>M</type><originID>smi:org.gfz-potsdam.de/geofon/Origin/20230502035718.298845.220301</originID><methodID>smi:org.gfz-potsdam.de/geofon/weighted_average</methodID></magnitude><magnitude publicID="smi:org.gfz-potsdam.de/geofon/Origin/20230502035718.298845.220301/netMag/mB"><stationCount>2</stationCount><creationInfo><agencyID>GFZ</agencyID><creationTime>2023-05-02T03:57:18.55888Z</creationTime></creationInfo><mag><value>5.87</value><uncertainty>1</uncertainty></mag><type>mB</type><originID>smi:org.gfz-potsdam.de/geofon/Origin/20230502035718.298845.220301</originID><methodID>smi:org.gfz-potsdam.de/geofon/mean</methodID></magnitude><magnitude publicID="smi:org.gfz-potsdam.de/geofon/Origin/20230502035718.298845.220301/netMag/Mw(mB)"><stationCount>2</stationCount><creationInfo><agencyID>GFZ</agencyID><creationTime>2023-05-02T03:57:18.558943Z</creationTime></creationInfo><mag><value>5.45</value><uncertainty>1</uncertainty></mag><type>Mw(mB)</type><originID>smi:org.gfz-potsdam.de/geofon/Origin/20230502035718.298845.220301</originID></magnitude><origin publicID="smi:org.gfz-potsdam.de/geofon/Origin/20230502035718.298845.220301"><arrival publicID="smi:org.gfz-potsdam.de/geofon/20230502.034022.45-PRE-IU.YSS.00.BH/repick_Origin/20230502035718.298845.220301"><azimuth>285.1948242</azimuth><distance>4.271818638</distance><timeResidual>2.444023132</timeResidual><pickID>smi:org.gfz-potsdam.de/geofon/20230502.034022.45-PRE-IU.YSS.00.BH/repick</pickID><phase>P</phase><timeWeight>1</timeWeight></arrival><arrival publicID="smi:org.gfz-potsdam.de/geofon/20230502.034039.15-PRE-II.ERM.00.BH/repick_Origin/20230502035718.298845.220301"><azimuth>227.5548706</azimuth><distance>5.682867527</distance><timeResidual>-1.75479126</timeResidual><pickID>smi:org.gfz-potsdam.de/geofon/20230502.034039.15-PRE-II.ERM.00.BH/repick</pickID><phase>P</phase><timeWeight>1</timeWeight></arrival><arrival publicID="smi:org.gfz-potsdam.de/geofon/20230502.034221.29-PRE-JP.JGF..BH/repick_Origin/20230502035718.298845.220301"><azimuth>223.7646637</azimuth><distance>13.50167179</distance><timeResidual>-1.567169189</timeResidual><pickID>smi:org.gfz-potsdam.de/geofon/20230502.034221.29-PRE-JP.JGF..BH/repick</pickID><phase>P</phase><timeWeight>1</timeWeight></arrival><arrival publicID="smi:org.gfz-potsdam.de/geofon/20230502.034609.71-PRE-II.KDAK.00.BH/repick_Origin/20230502035718.298845.220301"><azimuth>49.63907623</azimuth><distance>36.88972855</distance><timeResidual>-0.5421447754</timeResidual><pickID>smi:org.gfz-potsdam.de/geofon/20230502.034609.71-PRE-II.KDAK.00.BH/repick</pickID><phase>P</phase><timeWeight>1</timeWeight></arrival><arrival publicID="smi:org.gfz-potsdam.de/geofon/20230502.034623.91-PRE-IU.COLA.00.BH/repick_Origin/20230502035718.298845.220301"><azimuth>37.73617935</azimuth><distance>38.5738945</distance><timeResidual>0.9392089844</timeResidual><pickID>smi:org.gfz-potsdam.de/geofon/20230502.034623.91-PRE-IU.COLA.00.BH/repick</pickID><phase>P</phase><timeWeight>1</timeWeight></arrival><arrival publicID="smi:org.gfz-potsdam.de/geofon/20230502.034647.35-PRE-US.EGAK.00.BH/repick_Origin/20230502035718.298845.220301"><azimuth>37.4904213</azimuth><distance>41.4370575</distance><timeResidual>-0.05758666992</timeResidual><pickID>smi:org.gfz-potsdam.de/geofon/20230502.034647.35-PRE-US.EGAK.00.BH/repick</pickID><phase>P</phase><timeWeight>1</timeWeight></arrival><arrival publicID="smi:org.gfz-potsdam.de/geofon/20230502.034706.96-PRE-CN.INK..HH/repick_Origin/20230502035718.298845.220301"><azimuth>31.60512733</azimuth><distance>43.87812424</distance><timeResidual>0.3899230957</timeResidual><pickID>smi:org.gfz-potsdam.de/geofon/20230502.034706.96-PRE-CN.INK..HH/repick</pickID><phase>P</phase><timeWeight>1</timeWeight></arrival><arrival publicID="smi:org.gfz-potsdam.de/geofon/20230502.034713.84-PRE-IU.MAKZ.00.BH/repick_Origin/20230502035718.298845.220301"><azimuth>296.3477783</azimuth><distance>44.79472733</distance><timeResidual>-1.070037842</timeResidual><pickID>smi:org.gfz-potsdam.de/geofon/20230502.034713.84-PRE-IU.MAKZ.00.BH/repick</pickID><phase>P</phase><timeWeight>1</timeWeight></arrival><arrival publicID="smi:org.gfz-potsdam.de/geofon/20230502.034717.59-PRE-II.KURK.00.BH/repick_Origin/20230502035718.298845.220301"><azimuth>302.6698303</azimuth><distance>45.26649094</distance><timeResidual>-1.311981201</timeResidual><pickID>smi:org.gfz-potsdam.de/geofon/20230502.034717.59-PRE-II.KURK.00.BH/repick</pickID><phase>P</phase><timeWeight>1</timeWeight></arrival><arrival publicID="smi:org.gfz-potsdam.de/geofon/20230502.034740.11-PRE-RM.DLV..BH/repick_Origin/20230502035718.298845.220301"><azimuth>238.2548828</azimuth><distance>48.10270309</distance><timeResidual>2.135528564</timeResidual><pickID>smi:org.gfz-potsdam.de/geofon/20230502.034740.11-PRE-RM.DLV..BH/repick</pickID><phase>P</phase><timeWeight>1</timeWeight></arrival><arrival publicID="smi:org.gfz-potsdam.de/geofon/20230502.034801.77-PRE-KC.ASAI..BH/repick_Origin/20230502035718.298845.220301"><azimuth>291.8428955</azimuth><distance>51.04396439</distance><timeResidual>0.9754638672</timeResidual><pickID>smi:org.gfz-potsdam.de/geofon/20230502.034801.77-PRE-KC.ASAI..BH/repick</pickID><phase>P</phase><timeWeight>1</timeWeight></arrival><arrival publicID="smi:org.gfz-potsdam.de/geofon/20230502.034804.40-PRE-IO.EVN..BH/repick_Origin/20230502035718.298845.220301"><azimuth>271.9889526</azimuth><distance>51.38110733</distance><timeResidual>1.24331665</timeResidual><pickID>smi:org.gfz-potsdam.de/geofon/20230502.034804.40-PRE-IO.EVN..BH/repick</pickID><phase>P</phase><timeWeight>1</timeWeight></arrival><arrival publicID="smi:org.gfz-potsdam.de/geofon/20230502.034846.76-PRE-II.NIL.10.BH/repick_Origin/20230502035718.298845.220301"><azimuth>286.2183533</azimuth><distance>57.25681305</distance><timeResidual>0.6593017578</timeResidual><pickID>smi:org.gfz-potsdam.de/geofon/20230502.034846.76-PRE-II.NIL.10.BH/repick</pickID><phase>P</phase><timeWeight>1</timeWeight></arrival><arrival publicID="smi:org.gfz-potsdam.de/geofon/20230502.034902.48-PRE-IU.KBL..BH/repick_Origin/20230502035718.298845.220301"><azimuth>289.5256042</azimuth><distance>59.52631378</distance><timeResidual>-0.758392334</timeResidual><pickID>smi:org.gfz-potsdam.de/geofon/20230502.034902.48-PRE-IU.KBL..BH/repick</pickID><phase>P</phase><timeWeight>1</timeWeight></arrival><arrival publicID="smi:org.gfz-potsdam.de/geofon/20230502.034902.58-PRE-FN.RNF..BH/repick_Origin/20230502035718.298845.220301"><azimuth>337.0832825</azimuth><distance>59.55731964</distance><timeResidual>-1.544891357</timeResidual><pickID>smi:org.gfz-potsdam.de/geofon/20230502.034902.58-PRE-FN.RNF..BH/repick</pickID><phase>P</phase><timeWeight>1</timeWeight></arrival><arrival publicID="smi:org.gfz-potsdam.de/geofon/20230502.034910.45-PRE-FN.OUL..BH/repick_Origin/20230502035718.298845.220301"><azimuth>335.9320679</azimuth><distance>60.71839142</distance><timeResidual>-1.839385986</timeResidual><pickID>smi:org.gfz-potsdam.de/geofon/20230502.034910.45-PRE-FN.OUL..BH/repick</pickID><phase>P</phase><timeWeight>1</timeWeight></arrival><arrival publicID="smi:org.gfz-potsdam.de/geofon/20230502.034919.36-PRE-IA.SBSI..BH/repick_Origin/20230502035718.298845.220301"><azimuth>239.3223419</azimuth><distance>61.87797546</distance><timeResidual>1.175567627</timeResidual><pickID>smi:org.gfz-potsdam.de/geofon/20230502.034919.36-PRE-IA.SBSI..BH/repick</pickID><phase>P</phase><timeWeight>1</timeWeight></arrival><arrival publicID="smi:org.gfz-potsdam.de/geofon/20230502.034927.11-PRE-II.FFC.00.BH/repick_Origin/20230502035718.298845.220301"><azimuth>37.84765625</azimuth><distance>63.2077446</distance><timeResidual>-0.2474060059</timeResidual><pickID>smi:org.gfz-potsdam.de/geofon/20230502.034927.11-PRE-II.FFC.00.BH/repick</pickID><phase>P</phase><timeWeight>1</timeWeight></arrival><arrival publicID="smi:org.gfz-potsdam.de/geofon/20230502.034939.01-PRE-HE.RAF..HH/repick_Origin/20230502035718.298845.220301"><azimuth>334.6074219</azimuth><distance>65.05106354</distance><timeResidual>-2.254302979</timeResidual><pickID>smi:org.gfz-potsdam.de/geofon/20230502.034939.01-PRE-HE.RAF..HH/repick</pickID><phase>P</phase><timeWeight>1</timeWeight></arrival><arrival publicID="smi:org.gfz-potsdam.de/geofon/20230502.035022.36-PRE-US.MVCO.00.BH/repick_Origin/20230502035718.298845.220301"><azimuth>54.98106003</azimuth><distance>71.99971771</distance><timeResidual>1.50479126</timeResidual><pickID>smi:org.gfz-potsdam.de/geofon/20230502.035022.36-PRE-US.MVCO.00.BH/repick</pickID><phase>P</phase><timeWeight>1</timeWeight></arrival><arrival publicID="smi:org.gfz-potsdam.de/geofon/20230502.035033.11-PRE-PL.KWP..HH/repick_Origin/20230502035718.298845.220301"><azimuth>326.8345642</azimuth><distance>73.87281799</distance><timeResidual>0.206451416</timeResidual><pickID>smi:org.gfz-potsdam.de/geofon/20230502.035033.11-PRE-PL.KWP..HH/repick</pickID><phase>P</phase><timeWeight>1</timeWeight></arrival><arrival publicID="smi:org.gfz-potsdam.de/geofon/20230502.035046.35-PRE-RO.DRGR..BH/repick_Origin/20230502035718.298845.220301"><azimuth>325.1165161</azimuth><distance>76.17965698</distance><timeResidual>-0.4762878418</timeResidual><pickID>smi:org.gfz-potsdam.de/geofon/20230502.035046.35-PRE-RO.DRGR..BH/repick</pickID><phase>P</phase><timeWeight>1</timeWeight></arrival><arrival publicID="smi:org.gfz-potsdam.de/geofon/20230502.035054.44-PRE-TU.KKUL..BH/repick_Origin/20230502035718.298845.220301"><azimuth>314.2635498</azimuth><distance>77.60769653</distance><timeResidual>0.8875427246</timeResidual><pickID>smi:org.gfz-potsdam.de/geofon/20230502.035054.44-PRE-TU.KKUL..BH/repick</pickID><phase>P</phase><timeWeight>1</timeWeight></arrival><arrival publicID="smi:org.gfz-potsdam.de/geofon/20230502.035059.22-PRE-OE.ARSA..BH/repick_Origin/20230502035718.298845.220301"><azimuth>329.5839233</azimuth><distance>78.49962616</distance><timeResidual>-0.5322570801</timeResidual><pickID>smi:org.gfz-potsdam.de/geofon/20230502.035059.22-PRE-OE.ARSA..BH/repick</pickID><phase>P</phase><timeWeight>1</timeWeight></arrival><arrival publicID="smi:org.gfz-potsdam.de/geofon/20230502.035104.13-PRE-OE.KBA..BH/repick_Origin/20230502035718.298845.220301"><azimuth>330.799469</azimuth><distance>79.40290833</distance><timeResidual>0.1031799316</timeResidual><pickID>smi:org.gfz-potsdam.de/geofon/20230502.035104.13-PRE-OE.KBA..BH/repick</pickID><phase>P</phase><timeWeight>1</timeWeight></arrival><arrival publicID="smi:org.gfz-potsdam.de/geofon/20230502.035114.16-PRE-TU.AYDN..BH/repick_Origin/20230502035718.298845.220301"><azimuth>316.4528809</azimuth><distance>81.25470734</distance><timeResidual>0.2167053223</timeResidual><pickID>smi:org.gfz-potsdam.de/geofon/20230502.035114.16-PRE-TU.AYDN..BH/repick</pickID><phase>P</phase><timeWeight>1</timeWeight></arrival><arrival publicID="smi:org.gfz-potsdam.de/geofon/20230502.035126.74-PRE-RD.ORIF..BH/repick_Origin/20230502035718.298845.220301"><azimuth>334.4616089</azimuth><distance>83.71525574</distance><timeResidual>1.075286865</timeResidual><pickID>smi:org.gfz-potsdam.de/geofon/20230502.035126.74-PRE-RD.ORIF..BH/repick</pickID><phase>P</phase><timeWeight>1</timeWeight></arrival><time><value>2023-05-02T03:39:17.77Z</value><uncertainty>0.7</uncertainty></time><longitude><value>148.784</value><uncertainty>5.34</uncertainty></longitude><latitude><value>45.996</value><uncertainty>6.46</uncertainty></latitude><depthType>from location</depthType><quality><associatedPhaseCount>34</associatedPhaseCount><usedPhaseCount>27</usedPhaseCount><associatedStationCount>34</associatedStationCount><usedStationCount>27</usedStationCount><depthPhaseCount>0</depthPhaseCount><standardError>1.23</standardError><azimuthalGap>168.8</azimuthalGap><maximumDistance>83.72</maximumDistance><minimumDistance>4.27</minimumDistance><medianDistance>59.53</medianDistance></quality><evaluationMode>automatic</evaluationMode><creationInfo><agencyID>GFZ</agencyID><creationTime>2023-05-02T03:57:18.299Z</creationTime></creationInfo><depth><value>159000</value><uncertainty>6800</uncertainty></depth><originUncertainty><minHorizontalUncertainty>9280.156136</minHorizontalUncertainty><maxHorizontalUncertainty>15406.20804</maxHorizontalUncertainty><azimuthMaxHorizontalUncertainty>146.9159546</azimuthMaxHorizontalUncertainty><preferredDescription>horizontal uncertainty</preferredDescription></originUncertainty><methodID>smi:org.gfz-potsdam.de/geofon/LOCSAT</methodID><earthModelID>smi:org.gfz-potsdam.de/geofon/iasp91</earthModelID></origin><pick publicID="smi:org.gfz-potsdam.de/geofon/20230502.034022.45-PRE-IU.YSS.00.BH/repick"><phaseHint>P</phaseHint><evaluationMode>automatic</evaluationMode><creationInfo><agencyID>GFZ</agencyID><creationTime>2023-05-02T03:55:52.952725Z</creationTime></creationInfo><time><value>2023-05-02T03:40:24.15Z</value></time><waveformID networkCode="IU" stationCode="YSS" locationCode="00" channelCode="BHZ"/><methodID>smi:org.gfz-potsdam.de/geofon/DL</methodID></pick><pick publicID="smi:org.gfz-potsdam.de/geofon/20230502.034039.15-PRE-II.ERM.00.BH/repick"><phaseHint>P</phaseHint><evaluationMode>automatic</evaluationMode><creationInfo><agencyID>GFZ</agencyID><creationTime>2023-05-02T03:55:52.952725Z</creationTime></creationInfo><time><value>2023-05-02T03:40:38.54Z</value></time><waveformID networkCode="II" stationCode="ERM" locationCode="00" channelCode="BHZ"/><methodID>smi:org.gfz-potsdam.de/geofon/DL</methodID></pick><pick publicID="smi:org.gfz-potsdam.de/geofon/20230502.034221.29-PRE-JP.JGF..BH/repick"><phaseHint>P</phaseHint><evaluationMode>automatic</evaluationMode><creationInfo><agencyID>GFZ</agencyID><creationTime>2023-05-02T03:55:52.952725Z</creationTime></creationInfo><time><value>2023-05-02T03:42:21.37Z</value></time><waveformID networkCode="JP" stationCode="JGF" channelCode="BHZ"/><methodID>smi:org.gfz-potsdam.de/geofon/DL</methodID></pick><pick publicID="smi:org.gfz-potsdam.de/geofon/20230502.034609.71-PRE-II.KDAK.00.BH/repick"><phaseHint>P</phaseHint><evaluationMode>automatic</evaluationMode><creationInfo><agencyID>GFZ</agencyID><creationTime>2023-05-02T03:55:52.952725Z</creationTime></creationInfo><time><value>2023-05-02T03:46:09.91Z</value></time><waveformID networkCode="II" stationCode="KDAK" locationCode="00" channelCode="BHZ"/><methodID>smi:org.gfz-potsdam.de/geofon/DL</methodID></pick><pick publicID="smi:org.gfz-potsdam.de/geofon/20230502.034623.91-PRE-IU.COLA.00.BH/repick"><phaseHint>P</phaseHint><evaluationMode>automatic</evaluationMode><creationInfo><agencyID>GFZ</agencyID><creationTime>2023-05-02T03:55:52.952725Z</creationTime></creationInfo><time><value>2023-05-02T03:46:25.41Z</value></time><waveformID networkCode="IU" stationCode="COLA" locationCode="00" channelCode="BHZ"/><methodID>smi:org.gfz-potsdam.de/geofon/DL</methodID></pick><pick publicID="smi:org.gfz-potsdam.de/geofon/20230502.034647.35-PRE-US.EGAK.00.BH/repick"><phaseHint>P</phaseHint><evaluationMode>automatic</evaluationMode><creationInfo><agencyID>GFZ</agencyID><creationTime>2023-05-02T03:55:52.952725Z</creationTime></creationInfo><time><value>2023-05-02T03:46:47.98Z</value></time><waveformID networkCode="US" stationCode="EGAK" locationCode="00" channelCode="BHZ"/><methodID>smi:org.gfz-potsdam.de/geofon/DL</methodID></pick><pick publicID="smi:org.gfz-potsdam.de/geofon/20230502.034706.96-PRE-CN.INK..HH/repick"><phaseHint>P</phaseHint><evaluationMode>automatic</evaluationMode><creationInfo><agencyID>GFZ</agencyID><creationTime>2023-05-02T03:55:52.952725Z</creationTime></creationInfo><time><value>2023-05-02T03:47:08.04Z</value></time><waveformID networkCode="CN" stationCode="INK" channelCode="HHZ"/><methodID>smi:org.gfz-potsdam.de/geofon/DL</methodID></pick><pick publicID="smi:org.gfz-potsdam.de/geofon/20230502.034713.84-PRE-IU.MAKZ.00.BH/repick"><phaseHint>P</phaseHint><evaluationMode>automatic</evaluationMode><creationInfo><agencyID>GFZ</agencyID><creationTime>2023-05-02T03:55:52.952725Z</creationTime></creationInfo><time><value>2023-05-02T03:47:14.14Z</value></time><waveformID networkCode="IU" stationCode="MAKZ" locationCode="00" channelCode="BHZ"/><methodID>smi:org.gfz-potsdam.de/geofon/DL</methodID></pick><pick publicID="smi:org.gfz-potsdam.de/geofon/20230502.034717.59-PRE-II.KURK.00.BH/repick"><phaseHint>P</phaseHint><evaluationMode>automatic</evaluationMode><creationInfo><agencyID>GFZ</agencyID><creationTime>2023-05-02T03:55:52.952725Z</creationTime></creationInfo><time><value>2023-05-02T03:47:17.56Z</value></time><waveformID networkCode="II" stationCode="KURK" locationCode="00" channelCode="BHZ"/><methodID>smi:org.gfz-potsdam.de/geofon/DL</methodID></pick><pick publicID="smi:org.gfz-potsdam.de/geofon/20230502.034740.11-PRE-RM.DLV..BH/repick"><phaseHint>P</phaseHint><evaluationMode>automatic</evaluationMode><creationInfo><agencyID>GFZ</agencyID><creationTime>2023-05-02T03:55:52.952725Z</creationTime></creationInfo><time><value>2023-05-02T03:47:43.47Z</value></time><waveformID networkCode="RM" stationCode="DLV" channelCode="BHZ"/><methodID>smi:org.gfz-potsdam.de/geofon/DL</methodID></pick><pick publicID="smi:org.gfz-potsdam.de/geofon/20230502.034801.77-PRE-KC.ASAI..BH/repick"><phaseHint>P</phaseHint><evaluationMode>automatic</evaluationMode><creationInfo><agencyID>GFZ</agencyID><creationTime>2023-05-02T03:55:52.952725Z</creationTime></creationInfo><time><value>2023-05-02T03:48:04.3Z</value></time><waveformID networkCode="KC" stationCode="ASAI" channelCode="BHZ"/><methodID>smi:org.gfz-potsdam.de/geofon/DL</methodID></pick><pick publicID="smi:org.gfz-potsdam.de/geofon/20230502.034804.40-PRE-IO.EVN..BH/repick"><phaseHint>P</phaseHint><evaluationMode>automatic</evaluationMode><creationInfo><agencyID>GFZ</agencyID><creationTime>2023-05-02T03:55:52.952725Z</creationTime></creationInfo><time><value>2023-05-02T03:48:07.26Z</value></time><waveformID networkCode="IO" stationCode="EVN" channelCode="BHZ"/><methodID>smi:org.gfz-potsdam.de/geofon/DL</methodID></pick><pick publicID="smi:org.gfz-potsdam.de/geofon/20230502.034846.76-PRE-II.NIL.10.BH/repick"><phaseHint>P</phaseHint><evaluationMode>automatic</evaluationMode><creationInfo><agencyID>GFZ</agencyID><creationTime>2023-05-02T03:55:52.952725Z</creationTime></creationInfo><time><value>2023-05-02T03:48:49.07Z</value></time><waveformID networkCode="II" stationCode="NIL" locationCode="10" channelCode="BHZ"/><methodID>smi:org.gfz-potsdam.de/geofon/DL</methodID></pick><pick publicID="smi:org.gfz-potsdam.de/geofon/20230502.034902.48-PRE-IU.KBL..BH/repick"><phaseHint>P</phaseHint><evaluationMode>automatic</evaluationMode><creationInfo><agencyID>GFZ</agencyID><creationTime>2023-05-02T03:55:52.952725Z</creationTime></creationInfo><time><value>2023-05-02T03:49:03.39Z</value></time><waveformID networkCode="IU" stationCode="KBL" channelCode="BHZ"/><methodID>smi:org.gfz-potsda