<?xml version="1.0" encoding="UTF-8" standalone="no" ?>
<q:quakeml xmlns:q="http://quakeml.org/xmlns/quakeml/1.2" xmlns="http://quakeml.org/xmlns/bed/1.2" xmlns:catalog="http://anss.org/xmlns/catalog/0.1" xmlns:tensor="http://anss.org/xmlns/tensor/0.1">

  <eventParameters xmlns="http://quakeml.org/xmlns/bed/1.2" publicID="quakeml:us.anss.org/eventparameters/b000i89z/1377544412">
    <event catalog:dataid="usb000i89z" catalog:datasource="us" catalog:eventid="b000i89z" catalog:eventsource="us" publicID="quakeml:us.anss.org/event/b000i89z">
      <description>
        <text>NEW IRELAND REGION, P.N.G.</text>
        <type>Flinn-Engdahl region</type>
      </description>
      <description>
        <text>116 km (72 miles) ENE of Taron, PNG (pop 0)
191 km (118 miles) ENE of Kokopo, Papua New Guinea (pop 26273)
309 km (192 miles) NW of Arawa, Papua New Guinea (pop 40266)
378 km (234 miles) ESE of Kavieng, Papua New Guinea (pop 14490)
902 km (560 miles) NW of Honiara, Solomon Islands (pop 56298)
</text>
        <type>nearest cities</type>
      </description>
      <focalMechanism catalog:dataid="us_b000i89z_mwc" catalog:datasource="us" publicID="quakeml:us.anss.org/focalmechanism/b000i89z/mwc">
        <waveformID channelCode="BHZ" locationCode="--" networkCode="GT" stationCode="BDFB" tensor:MTChanOffset="0" tensor:MTChanWaveformFit="0.87" tensor:MTChanWeight="0.004359"/>
        <waveformID channelCode="LHE" locationCode="00" networkCode="IU" stationCode="BILL" tensor:MTChanOffset="0" tensor:MTChanWaveformFit="0.34" tensor:MTChanWeight="0.001099"/>
        <waveformID channelCode="LHN" locationCode="00" networkCode="IU" stationCode="BILL" tensor:MTChanOffset="0" tensor:MTChanWaveformFit="0.64" tensor:MTChanWeight="0.000667"/>
        <waveformID channelCode="LHZ" locationCode="00" networkCode="IU" stationCode="BILL" tensor:MTChanOffset="0" tensor:MTChanWaveformFit="0.97" tensor:MTChanWeight="0.001937"/>
        <waveformID channelCode="BHE" locationCode="00" networkCode="GT" stationCode="BOSA" tensor:MTChanOffset="0" tensor:MTChanWaveformFit="0.87" tensor:MTChanWeight="0.001842"/>
        <waveformID channelCode="BHN" locationCode="00" networkCode="GT" stationCode="BOSA" tensor:MTChanOffset="0" tensor:MTChanWaveformFit="0.86" tensor:MTChanWeight="0.005376"/>
        <waveformID channelCode="BHZ" locationCode="00" networkCode="GT" stationCode="BOSA" tensor:MTChanOffset="0" tensor:MTChanWaveformFit="0.91" tensor:MTChanWeight="0.001296"/>
        <waveformID channelCode="BHE" locationCode="00" networkCode="GT" stationCode="DBIC" tensor:MTChanOffset="0" tensor:MTChanWaveformFit="0.83" tensor:MTChanWeight="0.003706"/>
        <waveformID channelCode="BHN" locationCode="00" networkCode="GT" stationCode="DBIC" tensor:MTChanOffset="0" tensor:MTChanWaveformFit="0.84" tensor:MTChanWeight="0.003334"/>
        <waveformID channelCode="BHZ" locationCode="00" networkCode="GT" stationCode="DBIC" tensor:MTChanOffset="0" tensor:MTChanWaveformFit="0.82" tensor:MTChanWeight="0.002759"/>
        <waveformID channelCode="BH1" locationCode="00" networkCode="II" stationCode="FFC" tensor:MTChanOffset="0" tensor:MTChanWaveformFit="0.86" tensor:MTChanWeight="0.011371"/>
        <waveformID channelCode="BH2" locationCode="00" networkCode="II" stationCode="FFC" tensor:MTChanOffset="0" tensor:MTChanWaveformFit="0.97" tensor:MTChanWeight="0.002946"/>
        <waveformID channelCode="BHZ" locationCode="00" networkCode="IU" stationCode="GNI" tensor:MTChanOffset="0" tensor:MTChanWaveformFit="0.95" tensor:MTChanWeight="0.003846"/>
        <waveformID channelCode="HHZ" locationCode="--" networkCode="PT" stationCode="HON" tensor:MTChanOffset="0" tensor:MTChanWaveformFit="0.98" tensor:MTChanWeight="0.000614"/>
        <waveformID channelCode="BHE" locationCode="00" networkCode="GT" stationCode="LPAZ" tensor:MTChanOffset="0" tensor:MTChanWaveformFit="0.69" tensor:MTChanWeight="0.003991"/>
        <waveformID channelCode="BHN" locationCode="00" networkCode="GT" stationCode="LPAZ" tensor:MTChanOffset="0" tensor:MTChanWaveformFit="0.89" tensor:MTChanWeight="0.005449"/>
        <waveformID channelCode="BHZ" locationCode="00" networkCode="GT" stationCode="LPAZ" tensor:MTChanOffset="0" tensor:MTChanWaveformFit="0.85" tensor:MTChanWeight="0.003158"/>
        <waveformID channelCode="BH1" locationCode="00" networkCode="II" stationCode="MSEY" tensor:MTChanOffset="0" tensor:MTChanWaveformFit="-0.62" tensor:MTChanWeight="0.004556"/>
        <waveformID channelCode="BH2" locationCode="00" networkCode="II" stationCode="MSEY" tensor:MTChanOffset="0" tensor:MTChanWaveformFit="-0.3" tensor:MTChanWeight="0.008876"/>
        <waveformID channelCode="BHE" locationCode="00" networkCode="IU" stationCode="PET" tensor:MTChanOffset="0" tensor:MTChanWaveformFit="0.75" tensor:MTChanWeight="0.025863"/>
        <waveformID channelCode="BHN" locationCode="00" networkCode="IU" stationCode="PET" tensor:MTChanOffset="0" tensor:MTChanWaveformFit="0.9" tensor:MTChanWeight="0.018975"/>
        <waveformID channelCode="BH1" locationCode="00" networkCode="IU" stationCode="SFJD" tensor:MTChanOffset="0" tensor:MTChanWaveformFit="0.87" tensor:MTChanWeight="0.008562"/>
        <waveformID channelCode="BH2" locationCode="00" networkCode="IU" stationCode="SFJD" tensor:MTChanOffset="0" tensor:MTChanWaveformFit="0.78" tensor:MTChanWeight="0.005266"/>
        <waveformID channelCode="BH1" locationCode="00" networkCode="IU" stationCode="TSUM" tensor:MTChanOffset="0" tensor:MTChanWaveformFit="0.8" tensor:MTChanWeight="0.011972"/>
        <waveformID channelCode="BH2" locationCode="00" networkCode="IU" stationCode="TSUM" tensor:MTChanOffset="0" tensor:MTChanWaveformFit="0.55" tensor:MTChanWeight="0.003133"/>
        <waveformID channelCode="BHZ" locationCode="00" networkCode="IU" stationCode="TSUM" tensor:MTChanOffset="0" tensor:MTChanWaveformFit="0.77" tensor:MTChanWeight="0.00248"/>
        <waveformID channelCode="BHE" locationCode="00" networkCode="IU" stationCode="ULN" tensor:MTChanOffset="0" tensor:MTChanWaveformFit="0.52" tensor:MTChanWeight="0.004446"/>
        <waveformID channelCode="BHN" locationCode="00" networkCode="IU" stationCode="ULN" tensor:MTChanOffset="0" tensor:MTChanWaveformFit="0.86" tensor:MTChanWeight="0.00503"/>
        <waveformID channelCode="BHZ" locationCode="00" networkCode="IU" stationCode="ULN" tensor:MTChanOffset="0" tensor:MTChanWaveformFit="0.86" tensor:MTChanWeight="0.00214"/>
        <waveformID channelCode="BHZ" locationCode="00" networkCode="IU" stationCode="YSS" tensor:MTChanOffset="0" tensor:MTChanWaveformFit="0.99" tensor:MTChanWeight="0.00095"/>
        <waveformID channelCode="LHE" locationCode="00" networkCode="IU" stationCode="YSS" tensor:MTChanOffset="0" tensor:MTChanWaveformFit="0.92" tensor:MTChanWeight="0.01087"/>
        <waveformID channelCode="LHN" locationCode="00" networkCode="IU" stationCode="YSS" tensor:MTChanOffset="0" tensor:MTChanWaveformFit="0.95" tensor:MTChanWeight="0.002106"/>
        <waveformID channelCode="BH1" locationCode="00" networkCode="II" stationCode="AAK" tensor:MTChanOffset="0" tensor:MTChanWaveformFit="0.7" tensor:MTChanWeight="0.02103"/>
        <waveformID channelCode="BH2" locationCode="00" networkCode="II" stationCode="AAK" tensor:MTChanOffset="0" tensor:MTChanWaveformFit="0.78" tensor:MTChanWeight="0.004099"/>
        <waveformID channelCode="BHZ" locationCode="00" networkCode="II" stationCode="AAK" tensor:MTChanOffset="0" tensor:MTChanWaveformFit="0.83" tensor:MTChanWeight="0.002653"/>
        <waveformID channelCode="BH1" locationCode="00" networkCode="IU" stationCode="ADK" tensor:MTChanOffset="0" tensor:MTChanWaveformFit="0.96" tensor:MTChanWeight="0.00279"/>
        <waveformID channelCode="BH2" locationCode="00" networkCode="IU" stationCode="ADK" tensor:MTChanOffset="0" tensor:MTChanWaveformFit="0.58" tensor:MTChanWeight="0.001677"/>
        <waveformID channelCode="BHZ" locationCode="00" networkCode="IU" stationCode="ADK" tensor:MTChanOffset="0" tensor:MTChanWaveformFit="0.99" tensor:MTChanWeight="0.001502"/>
        <waveformID channelCode="BH1" locationCode="00" networkCode="IU" stationCode="ANMO" tensor:MTChanOffset="0" tensor:MTChanWaveformFit="0.94" tensor:MTChanWeight="0.005961"/>
        <waveformID channelCode="BH2" locationCode="00" networkCode="IU" stationCode="ANMO" tensor:MTChanOffset="0" tensor:MTChanWaveformFit="0.53" tensor:MTChanWeight="0.003666"/>
        <waveformID channelCode="BHZ" locationCode="00" networkCode="IU" stationCode="ANMO" tensor:MTChanOffset="0" tensor:MTChanWaveformFit="0.97" tensor:MTChanWeight="0.002078"/>
        <waveformID channelCode="BHZ" locationCode="00" networkCode="IU" stationCode="ANTO" tensor:MTChanOffset="0" tensor:MTChanWaveformFit="0.89" tensor:MTChanWeight="0.003754"/>
        <waveformID channelCode="BHE" locationCode="--" networkCode="MN" stationCode="AQU" tensor:MTChanOffset="0" tensor:MTChanWaveformFit="0.68" tensor:MTChanWeight="0.016301"/>
        <waveformID channelCode="BHN" locationCode="--" networkCode="MN" stationCode="AQU" tensor:MTChanOffset="0" tensor:MTChanWaveformFit="0.89" tensor:MTChanWeight="0.023215"/>
        <waveformID channelCode="BHZ" locationCode="--" networkCode="MN" stationCode="AQU" tensor:MTChanOffset="0" tensor:MTChanWaveformFit="0.96" tensor:MTChanWeight="0.004387"/>
        <waveformID channelCode="BHZ" locationCode="00" networkCode="II" stationCode="ARU" tensor:MTChanOffset="0" tensor:MTChanWaveformFit="0.88" tensor:MTChanWeight="0.003949"/>
        <waveformID channelCode="BH1" locationCode="00" networkCode="II" stationCode="ASCN" tensor:MTChanOffset="0" tensor:MTChanWaveformFit="0.93" tensor:MTChanWeight="0.003073"/>
        <waveformID channelCode="BH2" locationCode="00" networkCode="II" stationCode="ASCN" tensor:MTChanOffset="0" tensor:MTChanWaveformFit="0.69" tensor:MTChanWeight="0.004728"/>
        <waveformID channelCode="BHZ" locationCode="00" networkCode="IC" stationCode="BJT" tensor:MTChanOffset="0" tensor:MTChanWaveformFit="0.93" tensor:MTChanWeight="0.001424"/>
        <waveformID channelCode="BHE" locationCode="--" networkCode="MN" stationCode="BNI" tensor:MTChanOffset="0" tensor:MTChanWaveformFit="0.09" tensor:MTChanWeight="0.006113"/>
        <waveformID channelCode="BHN" locationCode="--" networkCode="MN" stationCode="BNI" tensor:MTChanOffset="0" tensor:MTChanWaveformFit="0.96" tensor:MTChanWeight="0.009064"/>
        <waveformID channelCode="BHZ" locationCode="--" networkCode="MN" stationCode="BNI" tensor:MTChanOffset="0" tensor:MTChanWaveformFit="0.98" tensor:MTChanWeight="0.00534"/>
        <waveformID channelCode="BHZ" locationCode="00" networkCode="IU" stationCode="CASY" tensor:MTChanOffset="0" tensor:MTChanWaveformFit="0.58" tensor:MTChanWeight="0.001348"/>
        <waveformID channelCode="BH1" locationCode="00" networkCode="IU" stationCode="CHTO" tensor:MTChanOffset="0" tensor:MTChanWaveformFit="0.12" tensor:MTChanWeight="0.001591"/>
        <waveformID channelCode="BH2" locationCode="00" networkCode="IU" stationCode="CHTO" tensor:MTChanOffset="0" tensor:MTChanWaveformFit="0.27" tensor:MTChanWeight="0.003289"/>
        <waveformID channelCode="BHZ" locationCode="00" networkCode="IU" stationCode="CHTO" tensor:MTChanOffset="0" tensor:MTChanWaveformFit="0.84" tensor:MTChanWeight="0.001569"/>
        <waveformID channelCode="BHZ" locationCode="00" networkCode="II" stationCode="DGAR" tensor:MTChanOffset="0" tensor:MTChanWaveformFit="0.98" tensor:MTChanWeight="0.001834"/>
        <waveformID channelCode="BHE" locationCode="--" networkCode="GE" stationCode="DSB" tensor:MTChanOffset="0" tensor:MTChanWaveformFit="0.4" tensor:MTChanWeight="0.014604"/>
        <waveformID channelCode="BHN" locationCode="--" networkCode="GE" stationCode="DSB" tensor:MTChanOffset="0" tensor:MTChanWaveformFit="0.85" tensor:MTChanWeight="0.012166"/>
        <waveformID channelCode="BHZ" locationCode="--" networkCode="GE" stationCode="DSB" tensor:MTChanOffset="0" tensor:MTChanWaveformFit="0.94" tensor:MTChanWeight="0.006068"/>
        <waveformID channelCode="BHZ" locationCode="00" networkCode="IC" stationCode="ENH" tensor:MTChanOffset="0" tensor:MTChanWaveformFit="0.96" tensor:MTChanWeight="0.00126"/>
        <waveformID channelCode="BH1" locationCode="00" networkCode="II" stationCode="ESK" tensor:MTChanOffset="0" tensor:MTChanWaveformFit="0.92" tensor:MTChanWeight="0.00781"/>
        <waveformID channelCode="BH2" locationCode="00" networkCode="II" stationCode="ESK" tensor:MTChanOffset="0" tensor:MTChanWaveformFit="0.69" tensor:MTChanWeight="0.022489"/>
        <waveformID channelCode="BHZ" locationCode="00" networkCode="II" stationCode="ESK" tensor:MTChanOffset="0" tensor:MTChanWaveformFit="0.91" tensor:MTChanWeight="0.006294"/>
        <waveformID channelCode="BHZ" locationCode="00" networkCode="II" stationCode="FFC" tensor:MTChanOffset="0" tensor:MTChanWaveformFit="0.98" tensor:MTChanWeight="0.002633"/>
        <waveformID channelCode="BHZ" locationCode="00" networkCode="IU" stationCode="FURI" tensor:MTChanOffset="0" tensor:MTChanWaveformFit="0.87" tensor:MTChanWeight="0.002835"/>
        <waveformID channelCode="BHE" locationCode="--" networkCode="IU" stationCode="GRFO" tensor:MTChanOffset="0" tensor:MTChanWaveformFit="0.25" tensor:MTChanWeight="0.012277"/>
        <waveformID channelCode="BHN" locationCode="--" networkCode="IU" stationCode="GRFO" tensor:MTChanOffset="0" tensor:MTChanWaveformFit="0.96" tensor:MTChanWeight="0.012832"/>
        <waveformID channelCode="BHZ" locationCode="--" networkCode="IU" stationCode="GRFO" tensor:MTChanOffset="0" tensor:MTChanWaveformFit="0.97" tensor:MTChanWeight="0.003614"/>
        <waveformID channelCode="BHE" locationCode="--" networkCode="CI" stationCode="GSC" tensor:MTChanOffset="0" tensor:MTChanWaveformFit="-0.83" tensor:MTChanWeight="0.002517"/>
        <waveformID channelCode="BHN" locationCode="--" networkCode="CI" stationCode="GSC" tensor:MTChanOffset="0" tensor:MTChanWaveformFit="0.89" tensor:MTChanWeight="0.020583"/>
        <waveformID channelCode="BHZ" locationCode="--" networkCode="CI" stationCode="GSC" tensor:MTChanOffset="0" tensor:MTChanWaveformFit="0.94" tensor:MTChanWeight="0.001923"/>
        <waveformID channelCode="BHZ" locationCode="00" networkCode="IC" stationCode="HIA" tensor:MTChanOffset="0" tensor:MTChanWaveformFit="0.98" tensor:MTChanWeight="0.002322"/>
        <waveformID channelCode="BHZ" locationCode="--" networkCode="CI" stationCode="ISA" tensor:MTChanOffset="0" tensor:MTChanWaveformFit="0.88" tensor:MTChanWeight="0.000922"/>
        <waveformID channelCode="BH1" locationCode="00" networkCode="IU" stationCode="KBS" tensor:MTChanOffset="0" tensor:MTChanWaveformFit="0.96" tensor:MTChanWeight="0.012079"/>
        <waveformID channelCode="BH2" locationCode="00" networkCode="IU" stationCode="KBS" tensor:MTChanOffset="0" tensor:MTChanWaveformFit="0.89" tensor:MTChanWeight="0.013734"/>
        <waveformID channelCode="BHZ" locationCode="00" networkCode="IU" stationCode="KBS" tensor:MTChanOffset="0" tensor:MTChanWaveformFit="0.96" tensor:MTChanWeight="0.006084"/>
        <waveformID channelCode="BHZ" locationCode="00" networkCode="IU" stationCode="KIP" tensor:MTChanOffset="0" tensor:MTChanWaveformFit="1" tensor:MTChanWeight="0.000697"/>
        <waveformID channelCode="BHZ" locationCode="00" networkCode="II" stationCode="KIV" tensor:MTChanOffset="0" tensor:MTChanWaveformFit="0.94" tensor:MTChanWeight="0.006519"/>
        <waveformID channelCode="BHZ" locationCode="00" networkCode="IU" stationCode="KMBO" tensor:MTChanOffset="0" tensor:MTChanWaveformFit="0.97" tensor:MTChanWeight="0.002962"/>
        <waveformID channelCode="BHZ" locationCode="00" networkCode="IC" stationCode="KMI" tensor:MTChanOffset="0" tensor:MTChanWaveformFit="0.97" tensor:MTChanWeight="0.001403"/>
        <waveformID channelCode="BH1" locationCode="00" networkCode="IU" stationCode="KONO" tensor:MTChanOffset="0" tensor:MTChanWaveformFit="0.91" tensor:MTChanWeight="0.009325"/>
        <waveformID channelCode="BH2" locationCode="00" networkCode="IU" stationCode="KONO" tensor:MTChanOffset="0" tensor:MTChanWaveformFit="0.52" tensor:MTChanWeight="0.01812"/>
        <waveformID channelCode="BHZ" locationCode="00" networkCode="IU" stationCode="KONO" tensor:MTChanOffset="0" tensor:MTChanWaveformFit="0.97" tensor:MTChanWeight="0.005985"/>
        <waveformID channelCode="BH1" locationCode="00" networkCode="II" stationCode="KURK" tensor:MTChanOffset="0" tensor:MTChanWaveformFit="0.96" tensor:MTChanWeight="0.016968"/>
        <waveformID channelCode="BH2" locationCode="00" networkCode="II" stationCode="KURK" tensor:MTChanOffset="0" tensor:MTChanWaveformFit="0.89" tensor:MTChanWeight="0.004566"/>
        <waveformID channelCode="BHZ" locationCode="00" networkCode="II" stationCode="KURK" tensor:MTChanOffset="0" tensor:MTChanWaveformFit="0.97" tensor:MTChanWeight="0.002778"/>
        <waveformID channelCode="BHZ" locationCode="00" networkCode="IC" stationCode="LSA" tensor:MTChanOffset="0" tensor:MTChanWaveformFit="0.97" tensor:MTChanWeight="0.001745"/>
        <waveformID channelCode="BH1" locationCode="00" networkCode="IU" stationCode="LVC" tensor:MTChanOffset="0" tensor:MTChanWaveformFit="0.96" tensor:MTChanWeight="0.010206"/>
        <waveformID channelCode="BH2" locationCode="00" networkCode="IU" stationCode="LVC" tensor:MTChanOffset="0" tensor:MTChanWaveformFit="0.87" tensor:MTChanWeight="0.004982"/>
        <waveformID channelCode="BHZ" locationCode="00" networkCode="IU" stationCode="LVC" tensor:MTChanOffset="0" tensor:MTChanWaveformFit="0.92" tensor:MTChanWeight="0.004453"/>
        <waveformID channelCode="BHZ" locationCode="00" networkCode="II" stationCode="LVZ" tensor:MTChanOffset="0" tensor:MTChanWaveformFit="0.99" tensor:MTChanWeight="0.004739"/>
        <waveformID channelCode="BH1" locationCode="00" networkCode="IU" stationCode="MAJO" tensor:MTChanOffset="0" tensor:MTChanWaveformFit="1" tensor:MTChanWeight="0.00243"/>
        <waveformID channelCode="BH2" locationCode="00" networkCode="IU" stationCode="MAJO" tensor:MTChanOffset="0" tensor:MTChanWaveformFit="0.78" tensor:MTChanWeight="0.010218"/>
        <waveformID channelCode="BHZ" locationCode="00" networkCode="IU" stationCode="MAJO" tensor:MTChanOffset="0" tensor:MTChanWaveformFit="0.99" tensor:MTChanWeight="0.001435"/>
        <waveformID channelCode="BHZ" locationCode="00" networkCode="IC" stationCode="MDJ" tensor:MTChanOffset="0" tensor:MTChanWaveformFit="0.99" tensor:MTChanWeight="0.001718"/>
        <waveformID channelCode="BHZ" locationCode="00" networkCode="II" stationCode="MSEY" tensor:MTChanOffset="0" tensor:MTChanWaveformFit="0.99" tensor:MTChanWeight="0.002482"/>
        <waveformID channelCode="BHZ" locationCode="00" networkCode="II" stationCode="NNA" tensor:MTChanOffset="0" tensor:MTChanWaveformFit="0.89" tensor:MTChanWeight="0.002257"/>
        <waveformID channelCode="BHZ" locationCode="00" networkCode="II" stationCode="OBN" tensor:MTChanOffset="0" tensor:MTChanWaveformFit="0.94" tensor:MTChanWeight="0.005263"/>
        <waveformID channelCode="BH1" locationCode="00" networkCode="IU" stationCode="PAB" tensor:MTChanOffset="0" tensor:MTChanWaveformFit="0.89" tensor:MTChanWeight="0.005193"/>
        <waveformID channelCode="BH2" locationCode="00" networkCode="IU" stationCode="PAB" tensor:MTChanOffset="0" tensor:MTChanWaveformFit="0.09" tensor:MTChanWeight="0.012833"/>
        <waveformID channelCode="BHZ" locationCode="00" networkCode="IU" stationCode="PAB" tensor:MTChanOffset="0" tensor:MTChanWaveformFit="0.83" tensor:MTChanWeight="0.00314"/>
        <waveformID channelCode="BHZ" locationCode="00" networkCode="IU" stationCode="PET" tensor:MTChanOffset="0" tensor:MTChanWaveformFit="0.96" tensor:MTChanWeight="0.003427"/>
