<?xml version="1.0" encoding="UTF-8" standalone="no" ?>
<q:quakeml xmlns:q="http://quakeml.org/xmlns/quakeml/1.2" xmlns="http://quakeml.org/xmlns/bed/1.2" xmlns:catalog="http://anss.org/xmlns/catalog/0.1" xmlns:tensor="http://anss.org/xmlns/tensor/0.1">

  <eventParameters xmlns="http://quakeml.org/xmlns/bed/1.2" publicID="quakeml:us.anss.org/eventparameters/c000hx2t/1377544814">
    <event catalog:dataid="usc000hx2t" catalog:datasource="us" catalog:eventid="c000hx2t" catalog:eventsource="us" publicID="quakeml:us.anss.org/event/c000hx2t">
      <description>
        <text>GREATER LOS ANGELES AREA, CALIF.</text>
        <type>Flinn-Engdahl region</type>
      </description>
      <description>
        <text>4 km (2 miles) WSW of Fontana, California (pop 196069)
7 km (4 miles) W of Bloomington, California (pop 23851)
7 km (4 miles) N of Glen Avon, California (pop 20199)
10 km (6 miles) WSW of Rialto, California (pop 99171)
505 km (313 miles) W of Phoenix, Arizona (pop 1445632)
</text>
        <type>nearest cities</type>
      </description>
      <comment>
        <text>ML 2.5 (PAS). Felt (II) at Fontana and Rancho Cucamonga. Also felt at Mira Loma.

</text>
      </comment>
      <magnitude catalog:dataid="ci_c000hx2t_ml" catalog:datasource="us" publicID="quakeml:ci.anss.org/magnitude/c000hx2t/ml">
        <mag>
          <value>2.5</value>
          <uncertainty>0.3</uncertainty>
          <confidenceLevel>90</confidenceLevel>
        </mag>
        <type>ML</type>
        <evaluationMode>manual</evaluationMode>
        <evaluationStatus>reviewed</evaluationStatus>
        <creationInfo>
          <agencyID>ci</agencyID>
          <creationTime>2013-06-21T13:22:09Z</creationTime>
        </creationInfo>
      </magnitude>
      <origin catalog:dataid="usc000hx2t" catalog:datasource="us" catalog:eventid="c000hx2t" publicID="quakeml:us.anss.org/origin/c000hx2t">
        <originUncertainty>
          <horizontalUncertainty>4400</horizontalUncertainty>
          <maxHorizontalUncertainty>9900</maxHorizontalUncertainty>
          <azimuthMaxHorizontalUncertainty>212</azimuthMaxHorizontalUncertainty>
          <confidenceEllipsoid>
            <semiMajorAxisLength>13000</semiMajorAxisLength>
            <semiMinorAxisLength>4500</semiMinorAxisLength>
            <semiIntermediateAxisLength>9900</semiIntermediateAxisLength>
            <majorAxisPlunge>85</majorAxisPlunge>
            <majorAxisAzimuth>212</majorAxisAzimuth>
            <majorAxisRotation>96</majorAxisRotation>
          </confidenceEllipsoid>
          <preferredDescription>confidence ellipsoid</preferredDescription>
        </originUncertainty>
        <time>
          <value>2013-06-21T13:19:41.54Z</value>
          <uncertainty>0.78</uncertainty>
          <confidenceLevel>90.00</confidenceLevel>
        </time>
        <longitude>
          <value>-117.4825</value>
          <uncertainty>0.0403</uncertainty>
          <confidenceLevel>90.00</confidenceLevel>
        </longitude>
        <latitude>
          <value>34.0223</value>
          <uncertainty>0.0486</uncertainty>
          <confidenceLevel>90.00</confidenceLevel>
        </latitude>
        <depth>
          <value>7730</value>
          <uncertainty>8600</uncertainty>
          <confidenceLevel>90.00</confidenceLevel>
        </depth>
        <depthType>from location</depthType>
        <earthModelID>quakeml:us.anss.org/earthmodel/ak135</earthModelID>
        <quality>
          <associatedPhaseCount>13</associatedPhaseCount>
          <usedPhaseCount>16</usedPhaseCount>
          <standardError>0.38</standardError>
          <azimuthalGap>120</azimuthalGap>
          <secondaryAzimuthalGap>132</secondaryAzimuthalGap>
          <minimumDistance>0.518</minimumDistance>
        </quality>
        <type>hypocenter</type>
        <evaluationMode>manual</evaluationMode>
        <evaluationStatus>reviewed</evaluationStatus>
        <creationInfo>
          <agencyID>us</agencyID>
          <creationTime>2013-07-27T15:09:50Z</creationTime>
          <version>0</version>
        </creationInfo>
      </origin>
      <origin catalog:dataid="cilocationdisp_20130727150616_34_-117" catalog:datasource="ci" catalog:eventid="locationdisp_20130727150616_34_-117" publicID="quakeml:ci.anss.org/origin/locationdisp_20130727150616_34_-117">
        <originUncertainty>
          <horizontalUncertainty>4600</horizontalUncertainty>
          <maxHorizontalUncertainty>9800</maxHorizontalUncertainty>
          <azimuthMaxHorizontalUncertainty>231</azimuthMaxHorizontalUncertainty>
          <confidenceEllipsoid>
            <semiMajorAxisLength>13100</semiMajorAxisLength>
            <semiMinorAxisLength>4800</semiMinorAxisLength>
            <semiIntermediateAxisLength>9900</semiIntermediateAxisLength>
            <majorAxisPlunge>81</majorAxisPlunge>
            <majorAxisAzimuth>231</majorAxisAzimuth>
            <majorAxisRotation>105</majorAxisRotation>
          </confidenceEllipsoid>
          <preferredDescription>confidence ellipsoid</preferredDescription>
        </originUncertainty>
        <arrival publicID="quakeml:us.anss.org/arrival/c000hx2t/us_1464_24707723">
          <pickID>quakeml:us.anss.org/pick/c000hx2t/us_1464_24707723</pickID>
          <phase>Sn</phase>
          <azimuth>165.035</azimuth>
          <distance>1.22493</distance>
          <takeoffAngle>
            <value>50.2</value>
          </takeoffAngle>
          <timeResidual>-1.40</timeResidual>
          <timeWeight>0.2590</timeWeight>
          <creationInfo>
            <agencyID>us</agencyID>
            <creationTime>2013-06-21T13:21:19Z</creationTime>
          </creationInfo>
        </arrival>
        <arrival publicID="quakeml:us.anss.org/arrival/c000hx2t/us_3341_bpid-12003209499">
          <pickID>quakeml:us.anss.org/pick/c000hx2t/us_3341_bpid-12003209499</pickID>
          <phase>Pg</phase>
          <azimuth>287.256</azimuth>
          <distance>0.500886</distance>
          <takeoffAngle>
            <value>86.4</value>
          </takeoffAngle>
          <timeResidual>-0.20</timeResidual>
          <timeWeight>0.2120</timeWeight>
          <creationInfo>
            <agencyID>us</agencyID>
            <author>manual</author>
            <creationTime>2013-06-21T13:20:03Z</creationTime>
          </creationInfo>
        </arrival>
        <arrival publicID="quakeml:us.anss.org/arrival/c000hx2t/us_3341_bpid-12003209504">
          <pickID>quakeml:us.anss.org/pick/c000hx2t/us_3341_bpid-12003209504</pickID>
          <phase>Pg</phase>
          <azimuth>118.249</azimuth>
          <distance>0.971529</distance>
          <takeoffAngle>
            <value>88.5</value>
          </takeoffAngle>
          <timeResidual>-1.00</timeResidual>
          <timeWeight>0.1320</timeWeight>
          <creationInfo>
            <agencyID>us</agencyID>
            <author>manual</author>
            <creationTime>2013-06-21T13:20:30Z</creationTime>
          </creationInfo>
        </arrival>
        <arrival publicID="quakeml:us.anss.org/arrival/c000hx2t/us_3341_bpid-12003209513">
          <pickID>quakeml:us.anss.org/pick/c000hx2t/us_3341_bpid-12003209513</pickID>
          <phase>Pn</phase>
          <azimuth>333</azimuth>
          <distance>1.78121</distance>
          <takeoffAngle>
            <value>45.9</value>
          </takeoffAngle>
          <timeResidual>0.70</timeResidual>
          <timeWeight>0.1180</timeWeight>
          <creationInfo>
            <agencyID>us</agencyID>
            <author>manual</author>
            <creationTime>2013-06-21T13:20:30Z</creationTime>
          </creationInfo>
        </arrival>
        <arrival publicID="quakeml:us.anss.org/arrival/c000hx2t/us_3341_bpid-12003209506">
          <pickID>quakeml:us.anss.org/pick/c000hx2t/us_3341_bpid-12003209506</pickID>
          <phase>Sg</phase>
          <azimuth>297.937</azimuth>
          <distance>1.15993</distance>
          <takeoffAngle>
            <value>88.9</value>
          </takeoffAngle>
          <timeResidual>0.30</timeResidual>
          <timeWeight>0.0520</timeWeight>
          <creationInfo>
            <agencyID>us</agencyID>
            <author>manual</author>
            <creationTime>2013-06-21T13:20:33Z</creationTime>
          </creationInfo>
        </arrival>
        <arrival publicID="quakeml:us.anss.org/arrival/c000hx2t/us_3341_bpid-12003209514">
          <pickID>quakeml:us.anss.org/pick/c000hx2t/us_3341_bpid-12003209514</pickID>
          <phase>Pn</phase>
          <azimuth>357.625</azimuth>
          <distance>2.19793</distance>
          <takeoffAngle>
            <value>45.9</value>
          </takeoffAngle>
          <timeResidual>3.30</timeResidual>
          <timeWeight>0.1440</timeWeight>
          <creationInfo>
            <agencyID>us</agencyID>
            <author>manual</author>
            <creationTime>2013-06-21T13:20:45Z</creationTime>
          </creationInfo>
        </arrival>
        <arrival publicID="quakeml:us.anss.org/arrival/c000hx2t/us_3341_bpid-12003209500">
          <pickID>quakeml:us.anss.org/pick/c000hx2t/us_3341_bpid-12003209500</pickID>
          <phase>Sg</phase>
          <azimuth>287.256</azimuth>
          <distance>0.500886</distance>
          <takeoffAngle>
            <value>86.4</value>
          </takeoffAngle>
          <timeResidual>0.10</timeResidual>
          <timeWeight>0.0950</timeWeight>
          <creationInfo>
            <agencyID>us</agencyID>
            <author>manual</author>
            <creationTime>2013-07-27T15:07:21Z</creationTime>
          </creationInfo>
        </arrival>
        <arrival publicID="quakeml:us.anss.org/arrival/c000hx2t/us_3341_bpid-12003209501">
          <pickID>quakeml:us.anss.org/pick/c000hx2t/us_3341_bpid-12003209501</pickID>
          <phase>Sg</phase>
          <azimuth>279.449</azimuth>
          <distance>0.591884</distance>
          <takeoffAngle>
            <value>87.0</value>
          </takeoffAngle>
          <timeResidual>0.00</timeResidual>
          <timeWeight>0.1090</timeWeight>
          <creationInfo>
            <agencyID>us</agencyID>
            <author>manual</author>
            <creationTime>2013-07-27T15:07:29Z</creationTime>
          </creationInfo>
        </arrival>
        <arrival publicID="quakeml:us.anss.org/arrival/c000hx2t/us_3341_bpid-12003209505">
          <pickID>quakeml:us.anss.org/pick/c000hx2t/us_3341_bpid-12003209505</pickID>
          <phase>Sg</phase>
          <azimuth>118.249</azimuth>
          <distance>0.971529</distance>
          <takeoffAngle>
            <value>88.5</value>
          </takeoffAngle>
          <timeResidual>-1.10</timeResidual>
          <timeWeight>0.0590</timeWeight>
          <creationInfo>
            <agencyID>us</agencyID>
            <author>manual</author>
            <creationTime>2013-07-27T15:07:31Z</creationTime>
          </creationInfo>
        </arrival>
        <arrival publicID="quakeml:us.anss.org/arrival/c000hx2t/us_3341_bpid-12003209507">
          <pickID>quakeml:us.anss.org/pick/c000hx2t/us_3341_bpid-12003209507</pickID>
          <phase>Pg</phase>
          <azimuth>297.937</azimuth>
          <distance>1.15993</distance>
          <takeoffAngle>
            <value>88.9</value>
          </takeoffAngle>
          <timeResidual>-1.80</timeResidual>
          <timeWeight>0.1150</timeWeight>
          <creationInfo>
            <agencyID>us</agencyID>
            <author>manual</author>
            <creationTime>2013-07-27T15:08:03Z</creationTime>
          </creationInfo>
        </arrival>
        <arrival publicID="quakeml:us.anss.org/arrival/c000hx2t/us_3341_bpid-12003209508">
          <pickID>quakeml:us.anss.org/pick/c000hx2t/us_3341_bpid-12003209508</pickID>
          <phase>Pg</phase>
          <azimuth>165.035</azimuth>
          <distance>1.22493</distance>
          <takeoffAngle>
            <value>89.0</value>
          </takeoffAngle>
          <timeResidual>-1.80</timeResidual>
          <timeWeight>0.3530</timeWeight>
          <creationInfo>
            <agencyID>us</agencyID>
            <author>manual</author>
            <creationTime>2013-07-27T15:08:10Z</creationTime>
          </creationInfo>
        </arrival>
        <arrival publicID="quakeml:us.anss.org/arrival/c000hx2t/us_3341_bpid-12003209511">
          <pickID>quakeml:us.anss.org/pick/c000hx2t/us_3341_bpid-12003209511</pickID>
          <phase>Sn</phase>
          <azimuth>333</azimuth>
          <distance>1.78121</distance>
          <takeoffAngle>
            <value>50.2</value>
          </takeoffAngle>
          <timeResidual>1.60</timeResidual>
          <timeWeight>0.1160</timeWeight>
          <creationInfo>
            <agencyID>us</agencyID>
            <author>manual</author>
            <creationTime>2013-07-27T15:08:28Z</creationTime>
          </creationInfo>
        </arrival>
        <arrival publicID="quakeml:us.anss.org/arrival/c000hx2t/us_3341_bpid-12003209517">
          <pickID>quakeml:us.anss.org/pick/c000hx2t/us_3341_bpid-12003209517</pickID>
          <phase>Pn</phase>
          <azimuth>70.0009</azimuth>
          <distance>3.1369</distance>
          <takeoffAngle>
            <value>45.9</value>
          </takeoffAngle>
          <timeResidual>-0.40</timeResidual>
          <timeWeight>0.1130</timeWeight>
          <creationInfo>
            <agencyID>us</agencyID>
            <author>manual</author>
            <creationTime>2013-07-27T15:09:42Z</creationTime>
          </creationInfo>
        </arrival>
        <time>
          <value>2013-06-21T13:19:42.07Z</value>
          <uncertainty>2.21</uncertainty>
          <confidenceLevel>90.00</confidenceLevel>
        </time>
        <longitude>
          <value>-117.4810</value>
          <uncertainty>0.0417</uncertainty>
          <confidenceLevel>90.00</confidenceLevel>
        </longitude>
        <latitude>
          <value>34.0760</value>
          <uncertainty>0.0504</uncertainty>
          <confidenceLevel>90.00</confidenceLevel>
        </latitude>
        <depth>
          <value>3800</value>
          <uncertainty>8600</uncertainty>
          <confidenceLevel>90.00</confidenceLevel>
        </depth>
        <depthType>from location</depthType>
        <quality>
          <associatedPhaseCount>13</associatedPhaseCount>
          <usedPhaseCount>0</usedPhaseCount>
          <standardError>1.09</standardError>
        </quality>
        <type>hypocenter</type>
        <evaluationMode>manual</evaluationMode>
        <evaluationStatus>reviewed</evaluationStatus>
        <creationInfo>
          <agencyID>ci</agencyID>
          <creationTime>2013-07-27T15:09:55Z</creationTime>
          <version>0</version>
        </creationInfo>
      </origin>
      <origin catalog:dataid="ci11322906" catalog:datasource="ci" catalog:eventid="11322906" publicID="quakeml:ci.anss.org/origin/11322906">
        <originUncertainty>
          <horizontalUncertainty>4600</horizontalUncertainty>
          <maxHorizontalUncertainty>9900</maxHorizontalUncertainty>
          <azimuthMaxHorizontalUncertainty>233</azimuthMaxHorizontalUncertainty>
          <confidenceEllipsoid>
            <semiMajorAxisLength>13100</semiMajorAxisLength>
            <semiMinorAxisLength>4800</semiMinorAxisLength>
            <semiIntermediateAxisLength>9900</semiIntermediateAxisLength>
            <majorAxisPlunge>83</majorAxisPlunge>
            <majorAxisAzimuth>233</majorAxisAzimuth>
            <majorAxisRotation>106</majorAxisRotation>
          </confidenceEllipsoid>
          <preferredDescription>confidence ellipsoid</preferredDescription>
        </originUncertainty>
        <time>
          <value>2013-06-21T13:19:42Z</value>
          <uncertainty>2.13</uncertainty>
          <confidenceLevel>90.00</confidenceLevel>
        </time>
        <longitude>
          <value>-117.4818</value>
          <uncertainty>0.0417</uncertainty>
          <confidenceLevel>90.00</confidenceLevel>
        </longitude>
        <latitude>
          <value>34.0733</value>
          <uncertainty>0.0504</uncertainty>
          <confidenceLevel>90.00</confidenceLevel>
        </latitude>
        <depth>
          <value>2700</value>
          <uncertainty>8600</uncertainty>
          <confidenceLevel>90.00</confidenceLevel>
        </depth>
        <depthType>from location</depthType>
        <quality>
          <associatedPhaseCount>13</associatedPhaseCount>
          <usedPhaseCount>114</usedPhaseCount>
          <standardError>1.05</standardError>
          <azimuthalGap>36</azimuthalGap>
          <minimumDistance>0.045</minimumDistance>
        </quality>
        <type>hypocenter</type>
        <evaluationMode>manual</evaluationMode>
        <evaluationStatus>reviewed</evaluationStatus>
        <creationInfo>
          <agencyID>ci</agencyID>
          <creationTime>2013-07-27T15:09:55Z</creationTime>
          <version>0</version>
        </creationInfo>
      </origin>
      <pick publicID="quakeml:us.anss.org/pick/c000hx2t/us_1464_24707723">
        <time>
          <value>2013-06-21T13:20:21.57Z</value>
        </time>
        <waveformID channelCode="BHZ" locationCode="--" networkCode="TA" stationCode="109C"/>
        <evaluationMode>automatic</evaluationMode>
        <creationInfo>
          <agencyID>us</agencyID>
          <creationTime>2013-06-21T13:21:19Z</creationTime>
        </creationInfo>
      </pick>
      <pick publicID="quakeml:us.anss.org/pick/c000hx2t/us_3341_bpid-12003209499">
        <time>
          <value>2013-06-21T13:19:51.5Z</value>
        </time>
        <waveformID channelCode="BHZ" locationCode="--" networkCode="CI" stationCode="MWC"/>
        <evaluationMode>manual</evaluationMode>
        <creationInfo>
          <agencyID>us</agencyID>
          <creationTime>2013-06-21T13:20:03Z</creationTime>
        </creationInfo>
      </pick>
      <pick publicID="quakeml:us.anss.org/pick/c000hx2t/us_3341_bpid-12003209504">
        <time>
          <value>2013-06-21T13:19:59.69Z</value>
        </time>
        <waveformID channelCode="BHZ" locationCode="10" networkCode="II" stationCode="PFO"/>
        <evaluationMode>manual</evaluationMode>
        <creationInfo>
          <agencyID>us</agencyID>
          <creationTime>2013-06-21T13:20:30Z</creationTime>
        </creationInfo>
      </pick>
      <pick publicID="quakeml:us.anss.org/pick/c000hx2t/us_3341_bpid-12003209513">
        <time>
          <value>2013-06-21T13:20:14.42Z</value>
        </time>
        <waveformID channelCode="BHZ" locationCode="--" networkCode="CI" stationCode="ISA"/>
        <evaluationMode>manual</evaluationMode>
        <creationInfo>
          <agencyID>us</agencyID>
          <creationTime>2013-06-21T13:20:30Z</creationTime>
        </creationInfo>
      </pick>
      <pick publicID="quakeml:us.anss.org/pick/c000hx2t/us_3341_bpid-12003209506">
        <time>
          <value>2013-06-21T13:20:19.68Z</value>
        </time>
        <waveformID channelCode="BHZ" locationCode="--" networkCode="CI" stationCode="OSI"/>
        <evaluationMode>manual</evaluationMode>
        <creationInfo>
          <agencyID>us</agencyID>
          <creationTime>2013-06-21T13:20:33Z</creationTime>
        </creationInfo>
      </pick>
      <pick publicID="quakeml:us.anss.org/pick/c000hx2t/us_3341_bpid-12003209514">
        <time>
          <value>2013-06-21T13:20:22.86Z</value>
        </time>
        <waveformID channelCode="BHZ" locationCode="--" networkCode="LB" stationCode="DAC"/>
