<?xml version="1.0" encoding="UTF-8" standalone="no" ?>
<q:quakeml xmlns:q="http://quakeml.org/xmlns/quakeml/1.2" xmlns="http://quakeml.org/xmlns/bed/1.2" xmlns:catalog="http://anss.org/xmlns/catalog/0.1" xmlns:tensor="http://anss.org/xmlns/tensor/0.1">

  <eventParameters xmlns="http://quakeml.org/xmlns/bed/1.2" publicID="quakeml:us.anss.org/eventparameters/c000hvsf/1377546641">
    <event catalog:dataid="usc000hvsf" catalog:datasource="us" catalog:eventid="c000hvsf" catalog:eventsource="us" publicID="quakeml:us.anss.org/event/c000hvsf">
      <description>
        <text>NEW BRUNSWICK, CANADA</text>
        <type>Flinn-Engdahl region</type>
      </description>
      <description>
        <text>71 km (44 miles) NNE of Fredericton, Canada (pop 52337)
80 km (49 miles) SW of Miramichi, Canada (pop 18129)
120 km (74 miles) WNW of Moncton, Canada (pop 87467)
130 km (80 miles) WNW of Dieppe, Canada (pop 18565)
71 km (44 miles) NNE of Fredericton, Canada (pop 52337)
</text>
        <type>nearest cities</type>
      </description>
      <comment>
        <text>mbLg 2.9 (OTT). Felt at Fredericton and in the Rogersville area.

</text>
      </comment>
      <magnitude catalog:dataid="us_ott_c000hvsf_mb_lg" catalog:datasource="us" publicID="quakeml:us.anss.org/magnitude/ott_c000hvsf/mb_lg">
        <mag>
          <value>2.9</value>
        </mag>
        <type>mb_Lg</type>
        <evaluationMode>manual</evaluationMode>
        <evaluationStatus>reviewed</evaluationStatus>
        <creationInfo>
          <agencyID>us_ott</agencyID>
          <creationTime>2013-07-28T22:43:26Z</creationTime>
        </creationInfo>
      </magnitude>
      <origin catalog:dataid="us_ottlocationdisp_20130728223102_47_-66" catalog:datasource="us_ott" catalog:eventid="locationdisp_20130728223102_47_-66" publicID="quakeml:us.anss.org/origin/ott_locationdisp_20130728223102_47_-66">
        <originUncertainty>
          <horizontalUncertainty>4500</horizontalUncertainty>
          <maxHorizontalUncertainty>9300</maxHorizontalUncertainty>
          <azimuthMaxHorizontalUncertainty>204</azimuthMaxHorizontalUncertainty>
          <confidenceEllipsoid>
            <semiMajorAxisLength>12400</semiMajorAxisLength>
            <semiMinorAxisLength>4500</semiMinorAxisLength>
            <semiIntermediateAxisLength>9500</semiIntermediateAxisLength>
            <majorAxisPlunge>76</majorAxisPlunge>
            <majorAxisAzimuth>204</majorAxisAzimuth>
            <majorAxisRotation>134</majorAxisRotation>
          </confidenceEllipsoid>
          <preferredDescription>confidence ellipsoid</preferredDescription>
        </originUncertainty>
        <arrival publicID="quakeml:us.anss.org/arrival/c000hvsf/us_3222_bpid-11002524522">
          <pickID>quakeml:us.anss.org/pick/c000hvsf/us_3222_bpid-11002524522</pickID>
          <phase>Pg</phase>
          <azimuth>9.64124</azimuth>
          <distance>0.768427</distance>
          <takeoffAngle>
            <value>87.1</value>
          </takeoffAngle>
          <timeResidual>-0.20</timeResidual>
          <timeWeight>0.2480</timeWeight>
          <creationInfo>
            <agencyID>us</agencyID>
            <author>manual</author>
            <creationTime>2013-06-20T01:38:47Z</creationTime>
          </creationInfo>
        </arrival>
        <arrival publicID="quakeml:us.anss.org/arrival/c000hvsf/us_3222_bpid-11002524526">
          <pickID>quakeml:us.anss.org/pick/c000hvsf/us_3222_bpid-11002524526</pickID>
          <phase>Pn</phase>
          <azimuth>196.151</azimuth>
          <distance>1.45895</distance>
          <takeoffAngle>
            <value>45.9</value>
          </takeoffAngle>
          <timeResidual>-0.20</timeResidual>
          <timeWeight>0.0910</timeWeight>
          <creationInfo>
            <agencyID>us</agencyID>
            <author>manual</author>
            <creationTime>2013-06-20T01:39:08Z</creationTime>
          </creationInfo>
        </arrival>
        <arrival publicID="quakeml:us.anss.org/arrival/c000hvsf/us_3222_bpid-11002524523">
          <pickID>quakeml:us.anss.org/pick/c000hvsf/us_3222_bpid-11002524523</pickID>
          <phase>Pg</phase>
          <azimuth>123.147</azimuth>
          <distance>1.20446</distance>
          <takeoffAngle>
            <value>88.4</value>
          </takeoffAngle>
          <timeResidual>-1.00</timeResidual>
          <timeWeight>0.1960</timeWeight>
          <creationInfo>
            <agencyID>us</agencyID>
            <author>manual</author>
            <creationTime>2013-06-30T11:05:31Z</creationTime>
          </creationInfo>
        </arrival>
        <arrival publicID="quakeml:us.anss.org/arrival/c000hvsf/us_3222_bpid-11002524524">
          <pickID>quakeml:us.anss.org/pick/c000hvsf/us_3222_bpid-11002524524</pickID>
          <phase>Pg</phase>
          <azimuth>277.729</azimuth>
          <distance>1.22999</distance>
          <takeoffAngle>
            <value>88.5</value>
          </takeoffAngle>
          <timeResidual>-0.50</timeResidual>
          <timeWeight>0.2090</timeWeight>
          <creationInfo>
            <agencyID>us</agencyID>
            <author>manual</author>
            <creationTime>2013-06-30T11:05:36Z</creationTime>
          </creationInfo>
        </arrival>
        <arrival publicID="quakeml:us.anss.org/arrival/c000hvsf/us_3222_bpid-11002524525">
          <pickID>quakeml:us.anss.org/pick/c000hvsf/us_3222_bpid-11002524525</pickID>
          <phase>Sn</phase>
          <azimuth>277.729</azimuth>
          <distance>1.22999</distance>
          <takeoffAngle>
            <value>50.2</value>
          </takeoffAngle>
          <timeResidual>-0.90</timeResidual>
          <timeWeight>0.0690</timeWeight>
          <creationInfo>
            <agencyID>us</agencyID>
            <author>manual</author>
            <creationTime>2013-06-30T11:05:40Z</creationTime>
          </creationInfo>
        </arrival>
        <arrival publicID="quakeml:us.anss.org/arrival/c000hvsf/us_3222_bpid-11002524527">
          <pickID>quakeml:us.anss.org/pick/c000hvsf/us_3222_bpid-11002524527</pickID>
          <phase>Pn</phase>
          <azimuth>205.513</azimuth>
          <distance>2.0009</distance>
          <takeoffAngle>
            <value>45.9</value>
          </takeoffAngle>
          <timeResidual>0.60</timeResidual>
          <timeWeight>0.0810</timeWeight>
          <creationInfo>
            <agencyID>us</agencyID>
            <author>manual</author>
            <creationTime>2013-06-30T11:05:57Z</creationTime>
          </creationInfo>
        </arrival>
        <arrival publicID="quakeml:us.anss.org/arrival/c000hvsf/us_3222_bpid-11002524530">
          <pickID>quakeml:us.anss.org/pick/c000hvsf/us_3222_bpid-11002524530</pickID>
          <phase>Pn</phase>
          <azimuth>240.526</azimuth>
          <distance>2.46801</distance>
          <takeoffAngle>
            <value>45.9</value>
          </takeoffAngle>
          <timeResidual>-0.90</timeResidual>
          <timeWeight>0.0610</timeWeight>
          <creationInfo>
            <agencyID>us</agencyID>
            <author>manual</author>
            <creationTime>2013-06-30T11:06:04Z</creationTime>
          </creationInfo>
        </arrival>
        <arrival publicID="quakeml:us.anss.org/arrival/c000hvsf/us_3222_bpid-11002524533">
          <pickID>quakeml:us.anss.org/pick/c000hvsf/us_3222_bpid-11002524533</pickID>
          <phase>Pn</phase>
          <azimuth>106.893</azimuth>
          <distance>3.48505</distance>
          <takeoffAngle>
            <value>45.9</value>
          </takeoffAngle>
          <timeResidual>-0.90</timeResidual>
          <timeWeight>0.1110</timeWeight>
          <creationInfo>
            <agencyID>us</agencyID>
            <author>manual</author>
            <creationTime>2013-06-30T11:06:17Z</creationTime>
          </creationInfo>
        </arrival>
        <arrival publicID="quakeml:us.anss.org/arrival/c000hvsf/us_3222_bpid-11002524534">
          <pickID>quakeml:us.anss.org/pick/c000hvsf/us_3222_bpid-11002524534</pickID>
          <phase>Sn</phase>
          <azimuth>106.893</azimuth>
          <distance>3.48505</distance>
          <takeoffAngle>
            <value>50.2</value>
          </takeoffAngle>
          <timeResidual>-1.10</timeResidual>
          <timeWeight>0.0720</timeWeight>
          <creationInfo>
            <agencyID>us</agencyID>
            <author>manual</author>
            <creationTime>2013-06-30T11:06:23Z</creationTime>
          </creationInfo>
        </arrival>
        <arrival publicID="quakeml:us.anss.org/arrival/c000hvsf/us_3222_bpid-11002524535">
          <pickID>quakeml:us.anss.org/pick/c000hvsf/us_3222_bpid-11002524535</pickID>
          <phase>Pn</phase>
          <azimuth>256.1</azimuth>
          <distance>4.36162</distance>
          <takeoffAngle>
            <value>45.9</value>
          </takeoffAngle>
          <timeResidual>-0.60</timeResidual>
          <timeWeight>0.0460</timeWeight>
          <creationInfo>
            <agencyID>us</agencyID>
            <author>manual</author>
            <creationTime>2013-06-30T11:06:29Z</creationTime>
          </creationInfo>
        </arrival>
        <arrival publicID="quakeml:us.anss.org/arrival/c000hvsf/us_3222_bpid-11002524536">
          <pickID>quakeml:us.anss.org/pick/c000hvsf/us_3222_bpid-11002524536</pickID>
          <phase>Pn</phase>
          <azimuth>242.371</azimuth>
          <distance>4.6033</distance>
          <takeoffAngle>
            <value>45.8</value>
          </takeoffAngle>
          <timeResidual>0.30</timeResidual>
          <timeWeight>0.0490</timeWeight>
          <creationInfo>
            <agencyID>us</agencyID>
            <author>manual</author>
            <creationTime>2013-06-30T11:06:40Z</creationTime>
          </creationInfo>
        </arrival>
        <arrival publicID="quakeml:us.anss.org/arrival/c000hvsf/us_3222_bpid-11002524537">
          <pickID>quakeml:us.anss.org/pick/c000hvsf/us_3222_bpid-11002524537</pickID>
          <phase>Pn</phase>
          <azimuth>61.8482</azimuth>
          <distance>6.48627</distance>
          <takeoffAngle>
            <value>45.8</value>
          </takeoffAngle>
          <timeResidual>-1.50</timeResidual>
          <timeWeight>0.0760</timeWeight>
          <creationInfo>
            <agencyID>us</agencyID>
            <author>manual</author>
            <creationTime>2013-06-30T11:07:06Z</creationTime>
          </creationInfo>
        </arrival>
        <arrival publicID="quakeml:us.anss.org/arrival/c000hvsf/us_3222_bpid-11002524544">
          <pickID>quakeml:us.anss.org/pick/c000hvsf/us_3222_bpid-11002524544</pickID>
          <phase>Sb</phase>
          <azimuth>9.64124</azimuth>
          <distance>0.768427</distance>
          <takeoffAngle>
            <value>63.7</value>
          </takeoffAngle>
          <timeResidual>-2.30</timeResidual>
          <timeWeight>0.2150</timeWeight>
          <creationInfo>
            <agencyID>us</agencyID>
            <author>manual</author>
            <creationTime>2013-06-30T11:12:11Z</creationTime>
          </creationInfo>
        </arrival>
        <arrival publicID="quakeml:us.anss.org/arrival/c000hvsf/us_3222_bpid-11002524546">
          <pickID>quakeml:us.anss.org/pick/c000hvsf/us_3222_bpid-11002524546</pickID>
          <phase>Sn</phase>
          <azimuth>196.151</azimuth>
          <distance>1.45895</distance>
          <takeoffAngle>
            <value>50.2</value>
          </takeoffAngle>
          <timeResidual>-0.80</timeResidual>
          <timeWeight>0.1010</timeWeight>
          <creationInfo>
            <agencyID>us</agencyID>
            <author>manual</author>
            <creationTime>2013-06-30T11:12:18Z</creationTime>
          </creationInfo>
        </arrival>
        <arrival publicID="quakeml:us.anss.org/arrival/c000hvsf/us_3222_bpid-11002524547">
          <pickID>quakeml:us.anss.org/pick/c000hvsf/us_3222_bpid-11002524547</pickID>
          <phase>Sn</phase>
          <azimuth>205.513</azimuth>
          <distance>2.0009</distance>
          <takeoffAngle>
            <value>50.2</value>
          </takeoffAngle>
          <timeResidual>-1.60</timeResidual>
          <timeWeight>0.0760</timeWeight>
          <creationInfo>
            <agencyID>us</agencyID>
            <author>manual</author>
            <creationTime>2013-06-30T11:12:25Z</creationTime>
          </creationInfo>
        </arrival>
        <arrival publicID="quakeml:us.anss.org/arrival/c000hvsf/us.ott_2173_bpid-12003213016">
          <pickID>quakeml:us.anss.org/pick/c000hvsf/us.ott_2173_bpid-12003213016</pickID>
          <phase>Pn</phase>
          <azimuth>298.003</azimuth>
          <distance>2.63146</distance>
          <takeoffAngle>
            <value>45.9</value>
          </takeoffAngle>
          <timeResidual>-0.30</timeResidual>
          <timeWeight>0.0460</timeWeight>
          <creationInfo>
            <agencyID>us</agencyID>
            <author>manual</author>
            <creationTime>2013-07-28T22:42:09Z</creationTime>
          </creationInfo>
        </arrival>
        <arrival publicID="quakeml:us.anss.org/arrival/c000hvsf/us.ott_2173_bpid-12003213017">
          <pickID>quakeml:us.anss.org/pick/c000hvsf/us.ott_2173_bpid-12003213017</pickID>
          <phase>Sn</phase>
          <azimuth>298.003</azimuth>
          <distance>2.63146</distance>
          <takeoffAngle>
            <value>50.2</value>
          </takeoffAngle>
          <timeResidual>-0.90</timeResidual>
          <timeWeight>0.0380</timeWeight>
          <creationInfo>
            <agencyID>us</agencyID>
            <author>manual</author>
            <creationTime>2013-07-28T22:42:10Z</creationTime>
          </creationInfo>
        </arrival>
        <arrival publicID="quakeml:us.anss.org/arrival/c000hvsf/us.ott_2173_bpid-12003213018">
          <pickID>quakeml:us.anss.org/pick/c000hvsf/us.ott_2173_bpid-12003213018</pickID>
          <phase>Pn</phase>
          <azimuth>295.504</azimuth>
          <distance>2.87404</distance>
          <takeoffAngle>
            <value>45.9</value>
          </takeoffAngle>
          <timeResidual>-0.50</timeResidual>
          <timeWeight>0.0450</timeWeight>
          <creationInfo>
            <agencyID>us</agencyID>
            <author>manual</author>
            <creationTime>2013-07-28T22:42:10Z</creationTime>
          </creationInfo>
        </arrival>
        <arrival publicID="quakeml:us.anss.org/arrival/c000hvsf/us.ott_2173_bpid-12003213019">
          <pickID>quakeml:us.anss.org/pick/c000hvsf/us.ott_2173_bpid-12003213019</pickID>
          <phase>Sn</phase>
          <azimuth>295.504</azimuth>
          <distance>2.87404</distance>
          <takeoffAngle>
            <value>50.2</value>
          </takeoffAngle>
          <timeResidual>-0.90</timeResidual>
          <timeWeight>0.0350</timeWeight>
          <creationInfo>
            <agencyID>us</agencyID>
            <author>manual</author>
            <creationTime>2013-07-28T22:42:10Z</creationTime>
          </creationInfo>
        </arrival>
        <arrival publicID="quakeml:us.anss.org/arrival/c000hvsf/us.ott_2173_bpid-12003213020">
          <pickID>quakeml:us.anss.org/pick/c000hvsf/us.ott_2173_bpid-12003213020</pickID>
          <phase>Pn</phase>
          <azimuth>278.636</azimuth>
          <distance>3.41122</distance>
          <takeoffAngle>
            <value>45.9</value>
          </takeoffAngle>
          <timeResidual>-0.50</timeResidual>
          <timeWeight>0.0450</timeWeight>
          <creationInfo>
            <agencyID>us</agencyID>
            <author>manual</author>
            <creationTime>2013-07-28T22:42:10Z</creationTime>
          </creationInfo>
        </arrival>
        <arrival publicID="quakeml:us.anss.org/arrival/c000hvsf/us.ott_2173_bpid-12003213021">
          <pickID>quakeml:us.anss.org/pick/c000hvsf/us.ott_2173_bpid-12003213021</pickID>
          <phase>Sn</phase>
          <azimuth>278.636</azimuth>
          <distance>3.41122</distance>
          <takeoffAngle>
            <value>50.2</value>
          </takeoffAngle>
          <timeResidual>-1.60</timeResidual>
          <timeWeight>0.0300</timeWeight>
          <creationInfo>
            <agencyID>us</agencyID>
            <author>manual</author>
            <creationTime>2013-07-28T22:42:10Z</creationTime>
          </creationInfo>
        </arrival>
        <arrival publicID="quakeml:us.anss.org/arrival/c000hvsf/us.ott_2173_bpid-12003213022">
          <pickID>quakeml:us.anss.org/pick/c000hvsf/us.ott_2173_bpid-12003213022</pickID>
          <phase>Lg</phase>
          <azimuth>336.873</azimuth>
          <distance>3.04301</distance>
          <takeoffAngle>
            <value>50.2</value>
          </takeoffAngle>
          <timeResidual>-1.70</timeResidual>
          <timeWeight>0.0000</timeWeight>
          <creationInfo>
            <agencyID>us</agencyID>
            <author>manual</author>
            <creationTime>2013-07-28T22:42:10Z</creationTime>
          </creationInfo>
        </arrival>
        <arrival publicID="quakeml:us.anss.org/arrival/c000hvsf/us.ott_2173_bpid-12003213023">
          <pickID>quakeml:us.anss.org/pick/c000hvsf/us.ott_2173_bpid-12003213023</pickID>
          <phase>Pn</phase>
          <azimuth>336.873</azimuth>
          <distance>3.04301</distance>
          <takeoffAngle>
            <value>45.9</value>
          </takeoffAngle>
          <timeResidual>-0.90</timeResidual>
          <timeWeight>0.0510</timeWeight>
          <creationInfo>
            <agencyID>us</agencyID>
            <author>manual</author>
            <creationTime>2013-07-28T22:42:10Z</creationTime>
          </creationInfo>
        </arrival>
        <arrival publicID="quakeml:us.anss.org/arrival/c000hvsf/us.ott_2173_bpid-12003213024">
          <pickID>quakeml:us.anss.org/pick/c000hvsf/us.ott_2173_bpid-12003213024</pickID>
          <phase>Sn</phase>
          <azimuth>336.873</azimuth>
          <distance>3.04301</distance>
          <takeoffAngle>
            <value>50.2</value>
          </takeoffAngle>
          <timeResidual>-2.70</timeResidual>
          <timeWeight>0.0360</timeWeight>
          <creationInfo>
            <agencyID>us</agencyID>
            <author>manual</author>
            <creationTime>2013-07-28T22:42:10Z</creationTime>
          </creationInfo>
        </arrival>
        <arrival publicID="quakeml:us.anss.org/arrival/c000hvsf/us.ott_2173_bpid-12003213025">
          <pickID>quakeml:us.anss.org/pick/c000hvsf/us.ott_2173_bpid-12003213025</pickID>
          <phase>Lg</phase>
          <azimuth>270.465</azimuth>
          <distance>7.72896</distance>
          <takeoffAngle>
            <value>50.0</value>
          </takeoffAngle>
          <timeResidual>-15.50</timeResidual>
          <timeWeight>0.0000</timeWeight>
          <creationInfo>
            <agencyID>us</agencyID>
            <author>manual</author>
            <creationTime>2013-07-28T22:42:10Z</creationTime>
          </creationInfo>
        </arrival>
        <arrival publicID="quakeml:us.anss.org/arrival/c000hvsf/us.ott_2173_bpid-12003213026">
          <pickID>quakeml:us.anss.org/pick/c000hvsf/us.ott_2173_bpid-12003213026</pickID>
          <phase>Sn</phase>
          <azimuth>270.465</azimuth>
          <distance>7.72896</distance>
          <takeoffAngle>
            <value>50.0</value>
          </takeoffAngle>
          <timeResidual>-7.00</timeResidual>
