<?xml version="1.0" encoding="UTF-8" standalone="no" ?>
<q:quakeml xmlns:q="http://quakeml.org/xmlns/quakeml/1.2" xmlns="http://quakeml.org/xmlns/bed/1.2" xmlns:catalog="http://anss.org/xmlns/catalog/0.1" xmlns:tensor="http://anss.org/xmlns/tensor/0.1">

  <eventParameters xmlns="http://quakeml.org/xmlns/bed/1.2" publicID="quakeml:us.anss.org/eventparameters/c000hzfk/1377543539">
    <event catalog:dataid="usc000hzfk" catalog:datasource="us" catalog:eventid="c000hzfk" catalog:eventsource="us" publicID="quakeml:us.anss.org/event/c000hzfk">
      <description>
        <text>NORTHERN MID-ATLANTIC RIDGE</text>
        <type>Flinn-Engdahl region</type>
      </description>
      <description>
        <text>1243 km (772 miles) ENE of Remire-Montjoly, French Guiana (pop 19029)
1249 km (776 miles) ENE of Cayenne, French Guiana (pop 61550)
1253 km (778 miles) ENE of Matoury, French Guiana (pop 26350)
1266 km (786 miles) ENE of Kourou, French Guiana (pop 24029)
1357 km (843 miles) NNE of Salinopolis, Brazil (pop 40998)
</text>
        <type>nearest cities</type>
      </description>
      <focalMechanism catalog:dataid="us_c000hzfk_mwc" catalog:datasource="us" publicID="quakeml:us.anss.org/focalmechanism/c000hzfk/mwc">
        <waveformID channelCode="BHE" locationCode="00" networkCode="GT" stationCode="BOSA" tensor:MTChanOffset="0" tensor:MTChanWaveformFit="0.83" tensor:MTChanWeight="0.073439"/>
        <waveformID channelCode="BHZ" locationCode="00" networkCode="GT" stationCode="BOSA" tensor:MTChanOffset="0" tensor:MTChanWaveformFit="0.88" tensor:MTChanWeight="0.231185"/>
        <waveformID channelCode="BHE" locationCode="00" networkCode="GT" stationCode="DBIC" tensor:MTChanOffset="0" tensor:MTChanWaveformFit="0.92" tensor:MTChanWeight="0.977844"/>
        <waveformID channelCode="BHZ" locationCode="00" networkCode="IU" stationCode="GNI" tensor:MTChanOffset="0" tensor:MTChanWaveformFit="0.88" tensor:MTChanWeight="0.271253"/>
        <waveformID channelCode="BH2" locationCode="00" networkCode="IU" stationCode="KBS" tensor:MTChanOffset="0" tensor:MTChanWaveformFit="0.59" tensor:MTChanWeight="0.240385"/>
        <waveformID channelCode="LHZ" locationCode="00" networkCode="IU" stationCode="KIP" tensor:MTChanOffset="0" tensor:MTChanWaveformFit="0.61" tensor:MTChanWeight="1.02981"/>
        <waveformID channelCode="BHZ" locationCode="00" networkCode="GT" stationCode="LPAZ" tensor:MTChanOffset="0" tensor:MTChanWaveformFit="0.89" tensor:MTChanWeight="0.060016"/>
        <waveformID channelCode="BHZ" locationCode="00" networkCode="IC" stationCode="LSA" tensor:MTChanOffset="0" tensor:MTChanWaveformFit="0.95" tensor:MTChanWeight="0.452505"/>
        <waveformID channelCode="LH1" locationCode="00" networkCode="IU" stationCode="SDV" tensor:MTChanOffset="0" tensor:MTChanWaveformFit="0.77" tensor:MTChanWeight="0.009777"/>
        <waveformID channelCode="LH2" locationCode="00" networkCode="IU" stationCode="SDV" tensor:MTChanOffset="0" tensor:MTChanWaveformFit="0.98" tensor:MTChanWeight="0.247727"/>
        <waveformID channelCode="LHZ" locationCode="00" networkCode="IU" stationCode="ULN" tensor:MTChanOffset="0" tensor:MTChanWaveformFit="0.9" tensor:MTChanWeight="0.952227"/>
        <waveformID channelCode="BHZ" locationCode="00" networkCode="II" stationCode="AAK" tensor:MTChanOffset="0" tensor:MTChanWaveformFit="0.87" tensor:MTChanWeight="0.4794"/>
        <waveformID channelCode="BHZ" locationCode="00" networkCode="IU" stationCode="ADK" tensor:MTChanOffset="0" tensor:MTChanWaveformFit="0.94" tensor:MTChanWeight="0.730378"/>
        <waveformID channelCode="BH1" locationCode="00" networkCode="IU" stationCode="ANMO" tensor:MTChanOffset="0" tensor:MTChanWaveformFit="0.66" tensor:MTChanWeight="0.176408"/>
        <waveformID channelCode="BH2" locationCode="00" networkCode="IU" stationCode="ANMO" tensor:MTChanOffset="0" tensor:MTChanWaveformFit="0.88" tensor:MTChanWeight="0.251079"/>
        <waveformID channelCode="BHZ" locationCode="00" networkCode="IU" stationCode="ANMO" tensor:MTChanOffset="0" tensor:MTChanWaveformFit="0.93" tensor:MTChanWeight="0.247798"/>
        <waveformID channelCode="BHZ" locationCode="00" networkCode="IU" stationCode="ANTO" tensor:MTChanOffset="0" tensor:MTChanWaveformFit="0.87" tensor:MTChanWeight="0.250319"/>
        <waveformID channelCode="BHZ" locationCode="--" networkCode="MN" stationCode="AQU" tensor:MTChanOffset="0" tensor:MTChanWaveformFit="0.99" tensor:MTChanWeight="0.168906"/>
        <waveformID channelCode="BHZ" locationCode="00" networkCode="II" stationCode="ARU" tensor:MTChanOffset="0" tensor:MTChanWaveformFit="0.98" tensor:MTChanWeight="0.727213"/>
        <waveformID channelCode="BHZ" locationCode="--" networkCode="MN" stationCode="BNI" tensor:MTChanOffset="0" tensor:MTChanWaveformFit="0.99" tensor:MTChanWeight="0.169404"/>
        <waveformID channelCode="BHZ" locationCode="00" networkCode="IU" stationCode="CASY" tensor:MTChanOffset="0" tensor:MTChanWaveformFit="0.91" tensor:MTChanWeight="2.12742"/>
        <waveformID channelCode="BHZ" locationCode="00" networkCode="IU" stationCode="CHTO" tensor:MTChanOffset="0" tensor:MTChanWaveformFit="0.97" tensor:MTChanWeight="0.505108"/>
        <waveformID channelCode="BHZ" locationCode="00" networkCode="IU" stationCode="CTAO" tensor:MTChanOffset="0" tensor:MTChanWaveformFit="0.76" tensor:MTChanWeight="1.86612"/>
        <waveformID channelCode="BHE" locationCode="--" networkCode="GE" stationCode="DSB" tensor:MTChanOffset="0" tensor:MTChanWaveformFit="0.92" tensor:MTChanWeight="0.118851"/>
        <waveformID channelCode="BHN" locationCode="--" networkCode="GE" stationCode="DSB" tensor:MTChanOffset="0" tensor:MTChanWaveformFit="0.8" tensor:MTChanWeight="0.13936"/>
        <waveformID channelCode="BHZ" locationCode="--" networkCode="GE" stationCode="DSB" tensor:MTChanOffset="0" tensor:MTChanWaveformFit="0.98" tensor:MTChanWeight="0.234054"/>
        <waveformID channelCode="BH1" locationCode="00" networkCode="II" stationCode="ESK" tensor:MTChanOffset="0" tensor:MTChanWaveformFit="0.85" tensor:MTChanWeight="0.325123"/>
        <waveformID channelCode="BH2" locationCode="00" networkCode="II" stationCode="ESK" tensor:MTChanOffset="0" tensor:MTChanWaveformFit="0.9" tensor:MTChanWeight="0.211744"/>
        <waveformID channelCode="BHZ" locationCode="00" networkCode="II" stationCode="ESK" tensor:MTChanOffset="0" tensor:MTChanWaveformFit="0.98" tensor:MTChanWeight="0.250157"/>
        <waveformID channelCode="BHZ" locationCode="00" networkCode="II" stationCode="FFC" tensor:MTChanOffset="0" tensor:MTChanWaveformFit="0.97" tensor:MTChanWeight="0.258684"/>
        <waveformID channelCode="BHZ" locationCode="00" networkCode="IU" stationCode="FURI" tensor:MTChanOffset="0" tensor:MTChanWaveformFit="0.91" tensor:MTChanWeight="1.07318"/>
        <waveformID channelCode="BHE" locationCode="--" networkCode="IU" stationCode="GRFO" tensor:MTChanOffset="0" tensor:MTChanWaveformFit="0.94" tensor:MTChanWeight="0.395453"/>
        <waveformID channelCode="BHN" locationCode="--" networkCode="IU" stationCode="GRFO" tensor:MTChanOffset="0" tensor:MTChanWaveformFit="0.97" tensor:MTChanWeight="0.431176"/>
        <waveformID channelCode="BHZ" locationCode="--" networkCode="CI" stationCode="GSC" tensor:MTChanOffset="0" tensor:MTChanWaveformFit="0.98" tensor:MTChanWeight="0.329769"/>
        <waveformID channelCode="BHZ" locationCode="00" networkCode="IU" stationCode="GUMO" tensor:MTChanOffset="0" tensor:MTChanWaveformFit="0.83" tensor:MTChanWeight="0.774257"/>
        <waveformID channelCode="BHZ" locationCode="00" networkCode="IC" stationCode="HIA" tensor:MTChanOffset="0" tensor:MTChanWaveformFit="0.95" tensor:MTChanWeight="2.3967"/>
        <waveformID channelCode="BHZ" locationCode="--" networkCode="CI" stationCode="ISA" tensor:MTChanOffset="0" tensor:MTChanWaveformFit="0.89" tensor:MTChanWeight="0.417491"/>
        <waveformID channelCode="BHZ" locationCode="00" networkCode="IU" stationCode="KBS" tensor:MTChanOffset="0" tensor:MTChanWaveformFit="0.68" tensor:MTChanWeight="2.92001"/>
        <waveformID channelCode="BHZ" locationCode="00" networkCode="II" stationCode="KIV" tensor:MTChanOffset="0" tensor:MTChanWaveformFit="0.97" tensor:MTChanWeight="0.413238"/>
        <waveformID channelCode="BHZ" locationCode="00" networkCode="IU" stationCode="KONO" tensor:MTChanOffset="0" tensor:MTChanWaveformFit="0.97" tensor:MTChanWeight="0.377509"/>
        <waveformID channelCode="BHZ" locationCode="00" networkCode="II" stationCode="KURK" tensor:MTChanOffset="0" tensor:MTChanWaveformFit="0.91" tensor:MTChanWeight="0.728081"/>
        <waveformID channelCode="BH2" locationCode="00" networkCode="IU" stationCode="LSZ" tensor:MTChanOffset="0" tensor:MTChanWaveformFit="0.92" tensor:MTChanWeight="0.372711"/>
        <waveformID channelCode="BHZ" locationCode="00" networkCode="IU" stationCode="LSZ" tensor:MTChanOffset="0" tensor:MTChanWaveformFit="0.74" tensor:MTChanWeight="0.878712"/>
        <waveformID channelCode="BH1" locationCode="00" networkCode="IU" stationCode="LVC" tensor:MTChanOffset="0" tensor:MTChanWaveformFit="0.95" tensor:MTChanWeight="0.09578"/>
        <waveformID channelCode="BH2" locationCode="00" networkCode="IU" stationCode="LVC" tensor:MTChanOffset="0" tensor:MTChanWaveformFit="0.94" tensor:MTChanWeight="0.218818"/>
        <waveformID channelCode="BHZ" locationCode="00" networkCode="IU" stationCode="LVC" tensor:MTChanOffset="0" tensor:MTChanWaveformFit="0.95" tensor:MTChanWeight="0.096561"/>
        <waveformID channelCode="BHZ" locationCode="00" networkCode="II" stationCode="LVZ" tensor:MTChanOffset="0" tensor:MTChanWaveformFit="0.85" tensor:MTChanWeight="0.603069"/>
        <waveformID channelCode="BH2" locationCode="00" networkCode="IU" stationCode="MAJO" tensor:MTChanOffset="0" tensor:MTChanWaveformFit="0.97" tensor:MTChanWeight="0.096404"/>
        <waveformID channelCode="BHZ" locationCode="00" networkCode="II" stationCode="NNA" tensor:MTChanOffset="0" tensor:MTChanWaveformFit="0.98" tensor:MTChanWeight="0.076477"/>
        <waveformID channelCode="BHZ" locationCode="00" networkCode="II" stationCode="OBN" tensor:MTChanOffset="0" tensor:MTChanWaveformFit="0.93" tensor:MTChanWeight="0.53091"/>
        <waveformID channelCode="BHZ" locationCode="10" networkCode="IU" stationCode="OTAV" tensor:MTChanOffset="0" tensor:MTChanWaveformFit="0.89" tensor:MTChanWeight="0.131964"/>
        <waveformID channelCode="BHZ" locationCode="00" networkCode="IU" stationCode="PAB" tensor:MTChanOffset="0" tensor:MTChanWaveformFit="1" tensor:MTChanWeight="0.109959"/>
        <waveformID channelCode="BHZ" locationCode="00" networkCode="IU" stationCode="PET" tensor:MTChanOffset="0" tensor:MTChanWaveformFit="0.79" tensor:MTChanWeight="4.59245"/>
        <waveformID channelCode="BHZ" locationCode="00" networkCode="II" stationCode="PFO" tensor:MTChanOffset="0" tensor:MTChanWaveformFit="0.99" tensor:MTChanWeight="0.374739"/>
        <waveformID channelCode="BHZ" locationCode="00" networkCode="IU" stationCode="SDV" tensor:MTChanOffset="0" tensor:MTChanWaveformFit="0.48" tensor:MTChanWeight="0.224265"/>
        <waveformID channelCode="BH2" locationCode="00" networkCode="IU" stationCode="SFJD" tensor:MTChanOffset="0" tensor:MTChanWaveformFit="0.82" tensor:MTChanWeight="0.066289"/>
        <waveformID channelCode="BH2" locationCode="00" networkCode="II" stationCode="SHEL" tensor:MTChanOffset="0" tensor:MTChanWaveformFit="0.87" tensor:MTChanWeight="0.061537"/>
        <waveformID channelCode="BHZ" locationCode="00" networkCode="II" stationCode="SHEL" tensor:MTChanOffset="0" tensor:MTChanWaveformFit="0.98" tensor:MTChanWeight="0.087358"/>
        <waveformID channelCode="BHZ" locationCode="00" networkCode="IU" stationCode="SJG" tensor:MTChanOffset="0" tensor:MTChanWaveformFit="0.95" tensor:MTChanWeight="0.260969"/>
        <waveformID channelCode="BHZ" locationCode="--" networkCode="CI" stationCode="SNCC" tensor:MTChanOffset="0" tensor:MTChanWaveformFit="0.87" tensor:MTChanWeight="0.424085"/>
        <waveformID channelCode="BHZ" locationCode="00" networkCode="II" stationCode="SUR" tensor:MTChanOffset="0" tensor:MTChanWaveformFit="0.97" tensor:MTChanWeight="0.247323"/>
        <waveformID channelCode="BHZ" locationCode="00" networkCode="IU" stationCode="TATO" tensor:MTChanOffset="0" tensor:MTChanWaveformFit="0.92" tensor:MTChanWeight="1.05834"/>
        <waveformID channelCode="BHZ" locationCode="00" networkCode="IU" stationCode="TEIG" tensor:MTChanOffset="0" tensor:MTChanWaveformFit="0.93" tensor:MTChanWeight="0.812209"/>
        <waveformID channelCode="BHZ" locationCode="00" networkCode="II" stationCode="TLY" tensor:MTChanOffset="0" tensor:MTChanWaveformFit="0.96" tensor:MTChanWeight="1.0686"/>
        <waveformID channelCode="BHZ" locationCode="00" networkCode="IC" stationCode="WMQ" tensor:MTChanOffset="0" tensor:MTChanWaveformFit="0.97" tensor:MTChanWeight="0.681912"/>
        <waveformID channelCode="BHZ" locationCode="00" networkCode="II" stationCode="WRAB" tensor:MTChanOffset="0" tensor:MTChanWaveformFit="0.7" tensor:MTChanWeight="1.26635"/>
        <waveformID channelCode="LHZ" locationCode="00" networkCode="US" stationCode="DUG" tensor:MTChanOffset="0" tensor:MTChanWaveformFit="0.92" tensor:MTChanWeight="0.245822"/>
        <waveformID channelCode="LHZ" locationCode="00" networkCode="US" stationCode="BINY" tensor:MTChanOffset="0" tensor:MTChanWaveformFit="0.83" tensor:MTChanWeight="0.074004"/>
        <waveformID channelCode="BH1" locationCode="10" networkCode="II" stationCode="NNA" tensor:MTChanOffset="0" tensor:MTChanWaveformFit="0.97" tensor:MTChanWeight="0.167578"/>
        <waveformID channelCode="BH2" locationCode="10" networkCode="II" stationCode="NNA" tensor:MTChanOffset="0" tensor:MTChanWaveformFit="0.73" tensor:MTChanWeight="0.092399"/>
        <waveformID channelCode="LHZ" locationCode="10" networkCode="IU" stationCode="PMSA" tensor:MTChanOffset="0" tensor:MTChanWaveformFit="0.8" tensor:MTChanWeight="1.63887"/>
        <waveformID channelCode="BH1" locationCode="00" networkCode="II" stationCode="OBN" tensor:MTChanOffset="0" tensor:MTChanWaveformFit="0.94" tensor:MTChanWeight="0.510316"/>
        <waveformID channelCode="BH2" locationCode="00" networkCode="II" stationCode="OBN" tensor:MTChanOffset="0" tensor:MTChanWaveformFit="0.91" tensor:MTChanWeight="0.371129"/>
        <waveformID channelCode="BH2" locationCode="00" networkCode="II" stationCode="LVZ" tensor:MTChanOffset="0" tensor:MTChanWaveformFit="0.86" tensor:MTChanWeight="0.274814"/>
        <waveformID channelCode="BH1" locationCode="00" networkCode="II" stationCode="ARU" tensor:MTChanOffset="0" tensor:MTChanWaveformFit="0.84" tensor:MTChanWeight="0.692581"/>
        <waveformID channelCode="BH1" locationCode="10" networkCode="IC" stationCode="HIA" tensor:MTChanOffset="0" tensor:MTChanWaveformFit="0.69" tensor:MTChanWeight="0.671939"/>
        <waveformID channelCode="BH2" locationCode="10" networkCode="IC" stationCode="HIA" tensor:MTChanOffset="0" tensor:MTChanWaveformFit="0.86" tensor:MTChanWeight="0.143286"/>
        <waveformID channelCode="BH1" locationCode="10" networkCode="IC" stationCode="LSA" tensor:MTChanOffset="0" tensor:MTChanWaveformFit="0.94" tensor:MTChanWeight="1.12377"/>
        <waveformID channelCode="BH2" locationCode="10" networkCode="IC" stationCode="LSA" tensor:MTChanOffset="0" tensor:MTChanWaveformFit="0.51" tensor:MTChanWeight="0.717513"/>
        <waveformID channelCode="BH2" locationCode="00" networkCode="IU" stationCode="YAK" tensor:MTChanOffset="0" tensor:MTChanWaveformFit="0.87" tensor:MTChanWeight="0.261245"/>
        <momentTensor publicID="quakeml:us.anss.org/momenttensor/c000hzfk/mwc">
          <derivedOriginID>quakeml:us.anss.org/origin/c000hzfk/mwc</derivedOriginID>
          <momentMagnitudeID>quakeml:us.anss.org/magnitude/c000hzfk/mwc</momentMagnitudeID>
          <scalarMoment>
            <value>7.1e+018</value>
          </scalarMoment>
          <tensor>
            <Mrr>
              <value>-3.311e+017</value>
            </Mrr>
            <Mtt>
              <value>-5.651e+017</value>
            </Mtt>
            <Mpp>
              <value>8.962e+017</value>
            </Mpp>
            <Mrt>
              <value>-8.8e+017</value>
            </Mrt>
            <Mrp>
              <value>2.4511e+018</value>
            </Mrp>
            <Mtp>
              <value>-6.6057e+018</value>
            </Mtp>
          </tensor>
          <doubleCouple>75.85</doubleCouple>
          <clvd>24.15</clvd>
        </momentTensor>
        <nodalPlanes>
          <nodalPlane1>
            <strike>
              <value>271.96</value>
            </strike>
            <dip>
              <value>71.06</value>
            </dip>
            <rake>
              <value>174.4</value>
            </rake>
          </nodalPlane1>
          <nodalPlane2>
            <strike>
              <value>3.78</value>
            </strike>
            <dip>
              <value>84.7</value>
            </dip>
            <rake>
              <value>19.0344</value>
            </rake>
          </nodalPlane2>
        </nodalPlanes>
        <principalAxes>
          <tAxis>
            <azimuth>
              <value>229</value>
            </azimuth>
            <plunge>
              <value>17</value>
            </plunge>
            <length>
              <value>7.55623e+018</value>
            </length>
          </tAxis>
          <pAxis>
            <azimuth>
              <value>136</value>
            </azimuth>
            <plunge>
              <value>9</value>
            </plunge>
            <length>
              <value>-6.64363e+018</value>
            </length>
          </pAxis>
          <nAxis>
            <azimuth>
              <value>19</value>
            </azimuth>
            <plunge>
              <value>70</value>
            </plunge>
            <length>
              <value>-9.12594e+017</value>
            </length>
          </nAxis>
        </principalAxes>
        <evaluationMode>manual</evaluationMode>
        <evaluationStatus>reviewed</evaluationStatus>
        <creationInfo>
          <creationTime>2013-06-24T23:51:24Z</creationTime>
        </creationInfo>
        <waveformFit>0.89</waveformFit>
      </focalMechanism>
      <focalMechanism catalog:dataid="us_c000hzfk_mwb" catalog:datasource="us" publicID="quakeml:us.anss.org/focalmechanism/c000hzfk/mwb">
        <waveformID channelCode="LHZ" locationCode="00" networkCode="II" stationCode="ARU" tensor:MTChanOffset="2" tensor:MTChanWaveformFit="0.94" tensor:MTChanWeight="1"/>
        <waveformID channelCode="LH2" locationCode="00" networkCode="II" stationCode="BORG" tensor:MTChanOffset="-4" tensor:MTChanWaveformFit="0.87" tensor:MTChanWeight="0.19245"/>
        <waveformID channelCode="BHE" locationCode="00" networkCode="GT" stationCode="BOSA" tensor:MTChanOffset="-2" tensor:MTChanWaveformFit="0.9" tensor:MTChanWeight="0.19245"/>
        <waveformID channelCode="BHZ" locationCode="00" networkCode="GT" stationCode="BOSA" tensor:MTChanOffset="1" tensor:MTChanWaveformFit="0.88" tensor:MTChanWeight="1"/>
        <waveformID channelCode="LHZ" locationCode="00" networkCode="US" stationCode="BW06" tensor:MTChanOffset="0" tensor:MTChanWaveformFit="0.92" tensor:MTChanWeight="1"/>
        <waveformID channelCode="BHZ" locationCode="00" networkCode="GT" stationCode="CPUP" tensor:MTChanOffset="5" tensor:MTChanWaveformFit="0.84" tensor:MTChanWeight="1"/>
        <waveformID channelCode="BHE" locationCode="00" networkCode="GT" stationCode="DBIC" tensor:MTChanOffset="3" tensor:MTChanWaveformFit="0.8" tensor:MTChanWeight="0.19245"/>
