<?xml version="1.0" encoding="UTF-8" standalone="no" ?>
<q:quakeml xmlns:q="http://quakeml.org/xmlns/quakeml/1.2" xmlns="http://quakeml.org/xmlns/bed/1.2" xmlns:catalog="http://anss.org/xmlns/catalog/0.1" xmlns:tensor="http://anss.org/xmlns/tensor/0.1">

  <eventParameters xmlns="http://quakeml.org/xmlns/bed/1.2" publicID="quakeml:us.anss.org/eventparameters/b000ikuf/1379971687">
    <comment>
      <text>HYDRA - us</text>
    </comment>
    <event catalog:dataid="usb000ikuf" catalog:datasource="us" catalog:eventid="b000ikuf" catalog:eventsource="us" publicID="quakeml:us.anss.org/event/b000ikuf">
      <description>
        <text>NEAR COAST OF TARAPACA, CHILE</text>
        <type>Flinn-Engdahl region</type>
      </description>
      <description>
        <text>55 km (34 miles) W of Iquique, Chile (pop 227499)
194 km (120 miles) SSW of Arica, Chile (pop 185999)
215 km (133 miles) NNW of Tocopilla, Chile (pop 24460)
246 km (152 miles) S of Tacna, Peru (pop 280098)
488 km (303 miles) SSW of La Paz, Bolivia (pop 812799)
</text>
        <type>nearest cities</type>
      </description>
      <comment>
        <text>ML 4.9 (GUC). Felt (III) at La Tirana; (II) at Alto Hospicio, Camina, Huara, Iquique and Pozo Almonte.


</text>
      </comment>
      <focalMechanism catalog:dataid="us_b000ikuf_mwr" catalog:datasource="us" publicID="quakeml:us.anss.org/focalmechanism/b000ikuf/mwr">
        <waveformID channelCode="BH1" locationCode="00" networkCode="IU" stationCode="LVC" tensor:MTChanOffset="2.5" tensor:MTChanWaveformFit="0.94" tensor:MTChanWeight="1"/>
        <waveformID channelCode="BH2" locationCode="00" networkCode="IU" stationCode="LVC" tensor:MTChanOffset="-1" tensor:MTChanWaveformFit="0.89" tensor:MTChanWeight="1"/>
        <waveformID channelCode="BHZ" locationCode="00" networkCode="IU" stationCode="LVC" tensor:MTChanOffset="1.75" tensor:MTChanWaveformFit="0.96" tensor:MTChanWeight="1"/>
        <waveformID channelCode="BHE" locationCode="--" networkCode="CX" stationCode="MNMCX" tensor:MTChanOffset="0" tensor:MTChanWaveformFit="0.81" tensor:MTChanWeight="1"/>
        <waveformID channelCode="BHN" locationCode="--" networkCode="CX" stationCode="MNMCX" tensor:MTChanOffset="0" tensor:MTChanWaveformFit="0.95" tensor:MTChanWeight="1"/>
        <waveformID channelCode="BHZ" locationCode="--" networkCode="CX" stationCode="MNMCX" tensor:MTChanOffset="0.25" tensor:MTChanWaveformFit="0.93" tensor:MTChanWeight="1"/>
        <waveformID channelCode="BHE" locationCode="--" networkCode="CX" stationCode="PB01" tensor:MTChanOffset="0.5" tensor:MTChanWaveformFit="0.84" tensor:MTChanWeight="1"/>
        <waveformID channelCode="BHZ" locationCode="--" networkCode="CX" stationCode="PB01" tensor:MTChanOffset="0.25" tensor:MTChanWaveformFit="0.95" tensor:MTChanWeight="1"/>
        <waveformID channelCode="BHE" locationCode="--" networkCode="CX" stationCode="PB04" tensor:MTChanOffset="-0.5" tensor:MTChanWaveformFit="0.88" tensor:MTChanWeight="1"/>
        <waveformID channelCode="BHN" locationCode="--" networkCode="CX" stationCode="PB04" tensor:MTChanOffset="-10.75" tensor:MTChanWaveformFit="0.71" tensor:MTChanWeight="1"/>
        <waveformID channelCode="BHZ" locationCode="--" networkCode="CX" stationCode="PB04" tensor:MTChanOffset="-11" tensor:MTChanWaveformFit="0.72" tensor:MTChanWeight="1"/>
        <waveformID channelCode="BHE" locationCode="--" networkCode="CX" stationCode="PB10" tensor:MTChanOffset="-1" tensor:MTChanWaveformFit="0.85" tensor:MTChanWeight="1"/>
        <waveformID channelCode="BHE" locationCode="--" networkCode="CX" stationCode="PB11" tensor:MTChanOffset="-1.5" tensor:MTChanWaveformFit="0.87" tensor:MTChanWeight="1"/>
        <waveformID channelCode="BHN" locationCode="--" networkCode="CX" stationCode="PB11" tensor:MTChanOffset="-1.5" tensor:MTChanWaveformFit="0.84" tensor:MTChanWeight="1"/>
        <waveformID channelCode="BHZ" locationCode="--" networkCode="CX" stationCode="PB11" tensor:MTChanOffset="-1.75" tensor:MTChanWaveformFit="0.94" tensor:MTChanWeight="1"/>
        <waveformID channelCode="BHZ" locationCode="--" networkCode="C" stationCode="GO01" tensor:MTChanOffset="-1.75" tensor:MTChanWaveformFit="0.96" tensor:MTChanWeight="1"/>
        <momentTensor publicID="quakeml:us.anss.org/momenttensor/b000ikuf/mwr">
          <dataUsed>
            <waveType>combined</waveType>
            <componentCount>16</componentCount>
          </dataUsed>
          <derivedOriginID>quakeml:us.anss.org/origin/b000ikuf/mwr</derivedOriginID>
          <momentMagnitudeID>quakeml:us.anss.org/magnitude/b000ikuf/mwr</momentMagnitudeID>
          <scalarMoment>
            <value>2.76e+016</value>
          </scalarMoment>
          <tensor>
            <Mrr>
              <value>-1.433e+015</value>
            </Mrr>
            <Mtt>
              <value>3.76e+015</value>
            </Mtt>
            <Mpp>
              <value>-2.327e+015</value>
            </Mpp>
            <Mrt>
              <value>3.17e+014</value>
            </Mrt>
            <Mrp>
              <value>-2.728e+016</value>
            </Mrp>
            <Mtp>
              <value>-2.608e+015</value>
            </Mtp>
          </tensor>
          <doubleCouple>75.06</doubleCouple>
          <clvd>24.94</clvd>
          <category>regional</category>
        </momentTensor>
        <triggeringOriginID>quakeml:us.anss.org/origin/b000ikuf</triggeringOriginID>
        <nodalPlanes>
          <nodalPlane1>
            <strike>
              <value>178.21</value>
            </strike>
            <dip>
              <value>89.65</value>
            </dip>
            <rake>
              <value>84.16</value>
            </rake>
          </nodalPlane1>
          <nodalPlane2>
            <strike>
              <value>84.78</value>
            </strike>
            <dip>
              <value>5.85</value>
            </dip>
            <rake>
              <value>176.55</value>
            </rake>
          </nodalPlane2>
        </nodalPlanes>
        <principalAxes>
          <tAxis>
            <azimuth>
              <value>82</value>
            </azimuth>
            <plunge>
              <value>45</value>
            </plunge>
            <length>
              <value>2.55975e+016</value>
            </length>
          </tAxis>
          <pAxis>
            <azimuth>
              <value>274</value>
            </azimuth>
            <plunge>
              <value>44</value>
            </plunge>
            <length>
              <value>-2.9245e+016</value>
            </length>
          </pAxis>
          <nAxis>
            <azimuth>
              <value>178</value>
            </azimuth>
            <plunge>
              <value>6</value>
            </plunge>
            <length>
              <value>3.64756e+015</value>
            </length>
          </nAxis>
        </principalAxes>
        <evaluationMode>manual</evaluationMode>
        <evaluationStatus>reviewed</evaluationStatus>
        <creationInfo>
          <creationTime>2013-09-05T21:46:30Z</creationTime>
        </creationInfo>
        <waveformFit xmlns="http://anss.org/xmlns/tensor/0.1">0.88</waveformFit>
      </focalMechanism>
      <amplitude publicID="quakeml:us.anss.org/amp/im_nv31_bhz_--/mb">
        <genericAmplitude>
          <value>3.5e-010</value>
        </genericAmplitude>
        <type>AMB</type>
        <unit>m</unit>
        <period>
          <value>1.4000</value>
        </period>
        <timeWindow>
          <begin>0.00</begin>
          <end>40.00</end>
          <reference>2013-07-23T17:38:27.89Z</reference>
        </timeWindow>
        <pickID>quakeml:us.anss.org/pick/b000ikuf/us_2971_bpid-11002615447</pickID>
        <waveformID channelCode="BHZ" locationCode="--" networkCode="IM" stationCode="NV31"/>
        <scalingTime>
          <value>2013-07-23T17:39:06.365Z</value>
        </scalingTime>
        <magnitudeHint>mb</magnitudeHint>
        <evaluationMode>automatic</evaluationMode>
        <creationInfo/>
      </amplitude>
      <amplitude publicID="quakeml:us.anss.org/amp/au_maw_bhz_--/mb">
        <genericAmplitude>
          <value>7.5e-010</value>
        </genericAmplitude>
        <type>AMB</type>
        <unit>m</unit>
        <period>
          <value>1.0000</value>
        </period>
        <timeWindow>
          <begin>0.00</begin>
          <end>40.00</end>
          <reference>2013-07-23T17:39:35.74Z</reference>
        </timeWindow>
        <pickID>quakeml:us.anss.org/pick/b000ikuf/us_2971_bpid-11002615465</pickID>
        <waveformID channelCode="BHZ" locationCode="--" networkCode="AU" stationCode="MAW"/>
        <scalingTime>
          <value>2013-07-23T17:39:56.24Z</value>
        </scalingTime>
        <magnitudeHint>mb</magnitudeHint>
        <evaluationMode>automatic</evaluationMode>
        <creationInfo/>
      </amplitude>
      <amplitude publicID="quakeml:us.anss.org/amp/im_tx31_bhz_--/mb">
        <genericAmplitude>
          <value>2.45e-009</value>
        </genericAmplitude>
        <type>AMB</type>
        <unit>m</unit>
        <period>
          <value>1.2000</value>
        </period>
        <timeWindow>
          <begin>0.00</begin>
          <end>40.00</end>
          <reference>2013-07-23T17:36:51.98Z</reference>
        </timeWindow>
        <pickID>quakeml:us.anss.org/pick/b000ikuf/us_2971_bpid-11002615376</pickID>
        <waveformID channelCode="BHZ" locationCode="--" networkCode="IM" stationCode="TX31"/>
        <scalingTime>
          <value>2013-07-23T17:37:14.955Z</value>
        </scalingTime>
        <magnitudeHint>mb</magnitudeHint>
        <evaluationMode>automatic</evaluationMode>
        <creationInfo/>
      </amplitude>
      <amplitude publicID="quakeml:us.anss.org/amp/im_tx32_bhz_--/mb">
        <genericAmplitude>
          <value>2.75e-009</value>
        </genericAmplitude>
        <type>AMB</type>
        <unit>m</unit>
        <period>
          <value>1.2500</value>
        </period>
        <timeWindow>
          <begin>0.00</begin>
          <end>40.00</end>
          <reference>2013-07-23T17:36:51.04Z</reference>
        </timeWindow>
        <pickID>quakeml:us.anss.org/pick/b000ikuf/us_2971_bpid-11002615406</pickID>
        <waveformID channelCode="BHZ" locationCode="--" networkCode="IM" stationCode="TX32"/>
        <scalingTime>
          <value>2013-07-23T17:37:14.94Z</value>
        </scalingTime>
        <magnitudeHint>mb</magnitudeHint>
        <evaluationMode>automatic</evaluationMode>
        <creationInfo/>
      </amplitude>
      <amplitude publicID="quakeml:us.anss.org/amp/gt_plca_bhz_00/mb">
        <genericAmplitude>
          <value>1.065e-008</value>
        </genericAmplitude>
        <type>AMB</type>
        <unit>m</unit>
        <period>
          <value>0.9000</value>
        </period>
        <timeWindow>
          <begin>0.00</begin>
          <end>40.00</end>
          <reference>2013-07-23T17:31:33.57Z</reference>
        </timeWindow>
        <pickID>quakeml:us.anss.org/pick/b000ikuf/us_2971_bpid-11002615432</pickID>
        <waveformID channelCode="BHZ" locationCode="00" networkCode="GT" stationCode="PLCA"/>
        <scalingTime>
          <value>2013-07-23T17:31:57.995Z</value>
        </scalingTime>
        <magnitudeHint>mb</magnitudeHint>
        <evaluationMode>automatic</evaluationMode>
        <creationInfo/>
      </amplitude>
      <amplitude publicID="quakeml:us.anss.org/amp/us_bmo_bhz_00/mb">
        <genericAmplitude>
          <value>2.45e-009</value>
        </genericAmplitude>
        <type>AMB</type>
        <unit>m</unit>
        <period>
          <value>0.8500</value>
        </period>
        <timeWindow>
          <begin>0.00</begin>
          <end>40.00</end>
          <reference>2013-07-23T17:38:49.94Z</reference>
        </timeWindow>
        <pickID>quakeml:us.anss.org/pick/b000ikuf/us_2971_bpid-11002615458</pickID>
        <waveformID channelCode="BHZ" locationCode="00" networkCode="US" stationCode="BMO"/>
        <scalingTime>
          <value>2013-07-23T17:39:11.49Z</value>
        </scalingTime>
        <magnitudeHint>mb</magnitudeHint>
        <evaluationMode>automatic</evaluationMode>
        <creationInfo/>
      </amplitude>
      <amplitude publicID="quakeml:us.anss.org/amp/ta_r11a_bhz_--/mb">
        <genericAmplitude>
          <value>2.65e-009</value>
        </genericAmplitude>
        <type>AMB</type>
        <unit>m</unit>
        <period>
          <value>0.8500</value>
        </period>
        <timeWindow>
          <begin>0.00</begin>
          <end>40.00</end>
          <reference>2013-07-23T17:38:18.86Z</reference>
        </timeWindow>
        <pickID>quakeml:us.anss.org/pick/b000ikuf/us_2971_bpid-11002615439</pickID>
        <waveformID channelCode="BHZ" locationCode="--" networkCode="TA" stationCode="R11A"/>
        <scalingTime>
          <value>2013-07-23T17:38:40.46Z</value>
        </scalingTime>
        <magnitudeHint>mb</magnitudeHint>
        <evaluationMode>automatic</evaluationMode>
        <creationInfo/>
      </amplitude>
      <amplitude publicID="quakeml:us.anss.org/amp/us_wmok_bhz_10/mb">
        <genericAmplitude>
          <value>3.65e-009</value>
        </genericAmplitude>
        <type>AMB</type>
        <unit>m</unit>
        <period>
          <value>1.3500</value>
        </period>
        <timeWindow>
          <begin>0.00</begin>
          <end>40.00</end>
          <reference>2013-07-23T17:37:07.99Z</reference>
        </timeWindow>
        <pickID>quakeml:us.anss.org/pick/b000ikuf/us_2971_bpid-11002615410</pickID>
        <waveformID channelCode="BHZ" locationCode="10" networkCode="US" stationCode="WMOK"/>
        <scalingTime>
          <value>2013-07-23T17:37:39.415Z</value>
        </scalingTime>
        <magnitudeHint>mb</magnitudeHint>
        <evaluationMode>automatic</evaluationMode>
        <creationInfo/>
      </amplitude>
      <amplitude publicID="quakeml:us.anss.org/amp/iw_fxwy_bhz_--/mb">
        <genericAmplitude>
          <value>4.25e-009</value>
        </genericAmplitude>
        <type>AMB</type>
        <unit>m</unit>
        <period>
          <value>1.1500</value>
        </period>
        <timeWindow>
          <begin>0.00</begin>
          <end>40.00</end>
          <reference>2013-07-23T17:38:28.06Z</reference>
        </timeWindow>
        <pickID>quakeml:us.anss.org/pick/b000ikuf/us_2971_bpid-11002615445</pickID>
        <waveformID channelCode="BHZ" locationCode="--" networkCode="IW" stationCode="FXWY"/>
        <scalingTime>
          <value>2013-07-23T17:39:05.81Z</value>
        </scalingTime>
        <magnitudeHint>mb</magnitudeHint>
        <evaluationMode>automatic</evaluationMode>
        <creationInfo/>
      </amplitude>
      <amplitude publicID="quakeml:us.anss.org/amp/iu_anmo_bhz_10/mb">
        <genericAmplitude>
          <value>3.2e-009</value>
        </genericAmplitude>
        <type>AMB</type>
        <unit>m</unit>
        <period>
          <value>1.1000</value>
        </period>
        <timeWindow>
          <begin>0.00</begin>
          <end>40.00</end>
          <reference>2013-07-23T17:37:30.8Z</reference>
        </timeWindow>
        <pickID>quakeml:us.anss.org/pick/b000ikuf/us_2971_bpid-11002715114</pickID>
        <waveformID channelCode="BHZ" locationCode="10" networkCode="IU" stationCode="ANMO"/>
        <scalingTime>
          <value>2013-07-23T17:38:07.325Z</value>
        </scalingTime>
        <magnitudeHint>mb</magnitudeHint>
        <evaluationMode>automatic</evaluationMode>
        <creationInfo/>
      </amplitude>
      <amplitude publicID="quakeml:us.anss.org/amp/ae_w13a_bhz_--/mb">
        <genericAmplitude>
          <value>2.1e-009</value>
        </genericAmplitude>
        <type>AMB</type>
        <unit>m</unit>
        <period>
          <value>0.7000</value>
        </period>
        <timeWindow>
          <begin>0.00</begin>
          <end>40.00</end>
          <reference>2013-07-23T17:37:57.67Z</reference>
        </timeWindow>
        <pickID>quakeml:us.anss.org/pick/b000ikuf/us_2971_bpid-11002615417</pickID>
        <waveformID channelCode="BHZ" locationCode="--" networkCode="AE" stationCode="W13A"/>
        <scalingTime>
          <value>2013-07-23T17:38:20.17Z</value>
        </scalingTime>
        <magnitudeHint>mb</magnitudeHint>
        <evaluationMode>automatic</evaluationMode>
        <creationInfo/>
      </amplitude>
      <amplitude publicID="quakeml:us.anss.org/amp/iw_plid_bhz_--/mb">
        <genericAmplitude>
          <value>3.65e-009</value>
        </genericAmplitude>
        <type>AMB</type>
        <unit>m</unit>
        <period>
          <value>0.9000</value>
        </period>
        <timeWindow>
          <begin>0.00</begin>
          <end>40.00</end>
          <reference>2013-07-23T17:38:47.7Z</reference>
        </timeWindow>
        <pickID>quakeml:us.anss.org/pick/b000ikuf/us_2971_bpid-11002615457</pickID>
        <waveformID channelCode="BHZ" locationCode="--" networkCode="IW" stationCode="PLID"/>
        <scalingTime>
          <value>2013-07-23T17:39:08.95Z</value>
        </scalingTime>
        <magnitudeHint>mb</magnitudeHint>
        <evaluationMode>automatic</evaluationMode>
        <creationInfo/>
      </amplitude>
      <amplitude publicID="quakeml:us.anss.org/amp/ae_x16a_bhz_--/mb">
        <genericAmplitude>
          <value>3.4e-009</value>
        </genericAmplitude>
        <type>AMB</type>
        <unit>m</unit>
        <period>
          <value>1.0000</value>
        </period>
        <timeWindow>
          <begin>0.00</begin>
          <end>40.00</end>
          <reference>2013-07-23T17:37:46.33Z</reference>
        </timeWindow>
        <pickID>quakeml:us.anss.org/pick/b000ikuf/us_2971_bpid-11002615415</pickID>
        <waveformID channelCode="BHZ" locationCode="--" networkCode="AE" stationCode="X16A"/>
        <scalingTime>
          <value>2013-07-23T17:38:08.88Z</value>
        </scalingTime>
        <magnitudeHint>mb</magnitudeHint>
        <evaluationMode>automatic</evaluationMode>
        <creationInfo/>
      </amplitude>
      <amplitude publicID="quakeml:us.anss.org/amp/us_hlid_bhz_00/mb">
        <genericAmplitude>
          <value>4.55e-009</value>
        </genericAmplitude>
        <type>AMB</type>
        <unit>m</unit>
        <period>
          <value>1.0000</value>
        </period>
        <timeWindow>
          <begin>0.00</begin>
          <end>40.00</end>
          <reference>2013-07-23T17:38:37.45Z</reference>
        </timeWindow>
        <pickID>quakeml:us.anss.org/pick/b000ikuf/us_2971_bpid-11002615452</pickID>
        <waveformID channelCode="BHZ" locationCode="00" networkCode="US" stationCode="HLID"/>
        <scalingTime>
          <value>2013-07-23T17:38:58.925Z</value>
        </scalingTime>
        <magnitudeHint>mb</magnitudeHint>
        <evaluationMode>automatic</evaluationMode>
        <creationInfo/>
      </amplitude>
      <amplitude publicID="quakeml:us.anss.org/amp/us_boz_bhz_00/mb">
        <genericAmplitude>
          <value>6.35e-009</value>
        </genericAmplitude>
        <type>AMB</type>
        <unit>m</unit>
        <period>
          <value>1.4000</value>
        </period>
        <timeWindow>
          <begin>0.00</begin>
          <end>40.00</end>
          <reference>2013-07-23T17:38:38.35Z</reference>
        </timeWindow>
        <pickID>quakeml:us.anss.org/pick/b000ikuf/us_2971_bpid-11002615454</pickID>
